zip,lat,long,county,state,n
,,,,,
,,,,,1257
,,,,,
682,18.219023,-67.508068,mayaguez,PR,1
,,,,,
801,18.322285,-64.963715,saint thomas,VI,1
,,,,,
1026,42.428617,-72.909841,hampshire,MA,1
,,,,,
1060,42.415154,-72.76927,hampshire,MA,1
,,,,,
1062,42.328838,-72.845227,hampshire,MA,1
,,,,,
1085,42.14869,-72.501887,hampden,MA,1
,,,,,
1095,42.125974,-72.489988,hampden,MA,1
,,,,,
1339,42.594252,-72.665507,franklin,MA,1
,,,,,
1440,42.582529,-72.025884,worcester,MA,1
,,,,,
1451,42.500187,-71.575864,worcester,MA,1
,,,,,
1452,42.483895,-72.011516,worcester,MA,1
,,,,,
1462,42.583322,-71.752266,worcester,MA,1
,,,,,
1501,42.184835,-71.947184,worcester,MA,1
,,,,,
1507,42.13277,-71.972627,worcester,MA,1
,,,,,
1518,42.106405,-72.114045,worcester,MA,2
,,,,,
1536,42.407556,-71.860402,worcester,MA,2
,,,,,
1545,42.286992,-71.715313,worcester,MA,2
,,,,,
1560,42.176544,-71.681912,worcester,MA,1
,,,,,
1606,42.311834,-71.794465,worcester,MA,1
,,,,,
1701,42.446396,-71.459405,middlesex,MA,1
,,,,,
1730,42.446396,-71.459405,middlesex,MA,1
,,,,,
1742,42.446396,-71.459405,middlesex,MA,1
,,,,,
1757,42.147087,-71.528085,worcester,MA,1
,,,,,
1776,42.446396,-71.459405,middlesex,MA,1
,,,,,
1778,42.446396,-71.459405,middlesex,MA,1
,,,,,
1803,42.504844,-71.201539,middlesex,MA,1
,,,,,
1824,42.446396,-71.459405,middlesex,MA,1
,,,,,
1830,42.792639,-71.072501,essex,MA,1
,,,,,
1834,42.751074,-71.021437,essex,MA,2
,,,,,
1867,42.537065,-71.107172,middlesex,MA,1
,,,,,
1886,42.446396,-71.459405,middlesex,MA,1
,,,,,
1890,42.454545,-71.148779,middlesex,MA,1
,,,,,
1945,42.56142,-70.770768,essex,MA,1
,,,,,
2019,42.076501,-71.470464,norfolk,MA,1
,,,,,
2026,42.244733,-71.181141,norfolk,MA,1
,,,,,
2030,42.236114,-71.283072,norfolk,MA,1
,,,,,
2052,42.181265,-71.309934,norfolk,MA,1
,,,,,
2053,42.156282,-71.427663,norfolk,MA,1
,,,,,
2108,42.353806,-71.102446,suffolk,MA,1
,,,,,
2110,42.352847,-71.051466,suffolk,MA,1
,,,,,
2114,42.362097,-71.023661,suffolk,MA,1
,,,,,
2115,42.342043,-71.096848,suffolk,MA,1
,,,,,
2124,42.286784,-71.071045,suffolk,MA,1
,,,,,
2130,42.309661,-71.121097,suffolk,MA,1
,,,,,
2131,42.284197,-71.120896,suffolk,MA,1
,,,,,
2135,42.349768,-71.104888,suffolk,MA,3
,,,,,
2136,42.254248,-71.129321,suffolk,MA,1
,,,,,
2138,42.380442,-71.132947,middlesex,MA,3
,,,,,
2139,42.365146,-71.101842,middlesex,MA,2
,,,,,
2141,42.368673,-71.083596,middlesex,MA,1
,,,,,
2142,42.36284,-71.084814,middlesex,MA,1
,,,,,
2143,42.38092,-71.098896,middlesex,MA,2
,,,,,
2145,42.391046,-71.095146,middlesex,MA,1
,,,,,
2151,42.366303,-71.020494,suffolk,MA,1
,,,,,
2155,42.422095,-71.109297,middlesex,MA,2
,,,,,
2169,42.241799,-71.006042,norfolk,MA,2
,,,,,
2170,42.267248,-71.016742,norfolk,MA,1
,,,,,
2187,42.180048,-71.08923,norfolk,MA,1
,,,,,
2302,42.08475,-71.000189,plymouth,MA,1
,,,,,
2330,41.896238,-70.759689,plymouth,MA,1
,,,,,
2360,41.886207,-70.638717,plymouth,MA,1
,,,,,
2420,42.45631,-71.21665,middlesex,MA,1
,,,,,
2421,42.442567,-71.226453,middlesex,MA,3
,,,,,
2458,42.385096,-71.208399,middlesex,MA,2
,,,,,
2459,42.334146,-71.183298,middlesex,MA,1
,,,,,
2460,42.374296,-71.182371,middlesex,MA,1
,,,,,
2474,42.417595,-71.159696,middlesex,MA,1
,,,,,
2476,42.379146,-71.184299,middlesex,MA,1
,,,,,
2478,42.412795,-71.204399,middlesex,MA,2
,,,,,
2562,41.793263,-70.519584,barnstable,MA,1
,,,,,
2568,41.41595,-70.595235,dukes,MA,1
,,,,,
2571,41.760216,-70.694662,plymouth,MA,1
,,,,,
2631,41.852997,-70.044462,barnstable,MA,1
,,,,,
2638,41.725716,-70.089142,barnstable,MA,1
,,,,,
2646,41.845717,-70.053544,barnstable,MA,1
,,,,,
2657,41.888775,-70.091057,barnstable,MA,2
,,,,,
2703,41.938976,-71.302297,bristol,MA,1
,,,,,
2747,41.639261,-71.007578,bristol,MA,1
,,,,,
2767,41.9367,-71.048941,bristol,MA,1
,,,,,
2865,41.925298,-71.493355,providence,RI,1
,,,,,
2871,41.58523,-71.264197,newport,RI,1
,,,,,
2879,41.443653,-71.534202,washington,RI,1
,,,,,
2906,41.8374,-71.394717,providence,RI,2
,,,,,
2909,41.820599,-71.444302,providence,RI,1
,,,,,
3031,42.87474,-71.629365,hillsborough,NH,1
,,,,,
3038,42.950825,-71.197169,rockingham,NH,1
,,,,,
3049,42.859545,-71.581313,hillsborough,NH,1
,,,,,
3062,42.860117,-71.49976,hillsborough,NH,1
,,,,,
3077,43.05932,-71.204521,rockingham,NH,1
,,,,,
3108,42.952124,-71.653939,hillsborough,NH,1
,,,,,
3266,43.752475,-71.788434,grafton,NH,2
,,,,,
3281,43.084176,-71.762578,hillsborough,NH,1
,,,,,
3303,43.281654,-71.659523,merrimack,NH,1
,,,,,
3431,42.903656,-72.248052,cheshire,NH,1
,,,,,
3750,43.697999,-72.215182,grafton,NH,1
,,,,,
3753,43.463101,-72.218445,sullivan,NH,1
,,,,,
3755,43.861077,-72.120314,grafton,NH,1
,,,,,
3766,43.637148,-72.23546,grafton,NH,1
,,,,,
3773,43.390485,-72.199659,sullivan,NH,1
,,,,,
3811,42.878366,-71.159035,rockingham,NH,1
,,,,,
3903,43.182729,-70.745759,york,ME,1
,,,,,
4008,44.023162,-69.875816,sagadahoc,ME,1
,,,,,
4047,43.744987,-70.909196,york,ME,1
,,,,,
4084,43.804454,-70.554905,cumberland,ME,1
,,,,,
4103,43.68826,-70.289844,cumberland,ME,1
,,,,,
4105,43.73928,-70.270696,cumberland,ME,1
,,,,,
4107,43.595512,-70.239559,cumberland,ME,2
,,,,,
4260,43.967474,-70.299687,cumberland,ME,1
,,,,,
4429,44.894294,-68.818345,penobscot,ME,1
,,,,,
4469,45.002798,-68.63343,penobscot,ME,1
,,,,,
4488,44.894697,-69.142341,penobscot,ME,1
,,,,,
4572,44.038581,-69.415708,lincoln,ME,1
,,,,,
4578,43.964901,-69.597134,lincoln,ME,1
,,,,,
4648,45.002969,-67.495548,washington,ME,1
,,,,,
4941,44.488583,-69.339221,waldo,ME,1
,,,,,
4963,44.557111,-69.826495,kennebec,ME,1
,,,,,
5065,43.777365,-72.407132,windsor,VT,1
,,,,,
5301,42.884281,-72.760753,windham,VT,1
,,,,,
5401,44.507404,-73.151384,chittenden,VT,3
,,,,,
5405,44.442117,-73.082525,chittenden,VT,1
,,,,,
5462,44.318091,-73.006184,chittenden,VT,1
,,,,,
5482,44.42493,-73.114047,chittenden,VT,1
,,,,,
5672,44.535179,-72.660043,lamoille,VT,1
,,,,,
5757,43.478301,-73.060391,rutland,VT,1
,,,,,
5842,44.775607,-72.22641,orleans,VT,1
,,,,,
6002,41.851961,-72.738939,hartford,CT,2
,,,,,
6011,41.791776,-72.718832,hartford,CT,1
,,,,,
6040,41.776048,-72.523748,hartford,CT,1
,,,,,
6073,41.657099,-72.572233,hartford,CT,1
,,,,,
6074,41.834198,-72.564632,hartford,CT,1
,,,,,
6109,41.698899,-72.667887,hartford,CT,1
,,,,,
6235,41.80294,-72.126036,windham,CT,1
,,,,,
6355,41.485188,-72.000748,new london,CT,1
,,,,,
6360,41.499398,-71.994757,new london,CT,1
,,,,,
6401,41.342514,-73.070301,new haven,CT,1
,,,,,
6410,41.460167,-72.97222,new haven,CT,1
,,,,,
6441,41.462718,-72.578971,middlesex,CT,1
,,,,,
6443,41.350397,-72.788392,new haven,CT,1
,,,,,
6455,41.515346,-72.712988,middlesex,CT,1
,,,,,
6482,41.408137,-73.249671,fairfield,CT,1
,,,,,
6484,41.314347,-73.137143,fairfield,CT,1
,,,,,
6492,41.456205,-72.811047,new haven,CT,1
,,,,,
6510,41.309797,-72.922296,new haven,CT,2
,,,,,
6515,41.328697,-72.964247,new haven,CT,1
,,,,,
6516,41.272452,-72.940335,new haven,CT,1
,,,,,
6517,41.362197,-72.911396,new haven,CT,2
,,,,,
6518,41.416747,-72.906096,new haven,CT,1
,,,,,
6606,41.208796,-73.211807,fairfield,CT,1
,,,,,
6776,41.658619,-73.366017,litchfield,CT,3
,,,,,
6795,41.759427,-73.162003,litchfield,CT,1
,,,,,
6883,41.222945,-73.376263,fairfield,CT,1
,,,,,
7001,40.582845,-74.27524,middlesex,NJ,1
,,,,,
7002,40.670858,-74.109486,hudson,NJ,1
,,,,,
7009,40.857049,-74.227109,essex,NJ,1
,,,,,
7013,40.872898,-74.170138,passaic,NJ,1
,,,,,
7030,40.746851,-74.033934,hudson,NJ,1
,,,,,
7043,40.8034,-74.19448,essex,NJ,1
,,,,,
7052,40.789944,-74.22719,essex,NJ,1
,,,,,
7059,40.629101,-74.532449,somerset,NJ,2
,,,,,
7066,40.622502,-74.311092,union,NJ,1
,,,,,
7086,NA,NA,hudson,NJ,1
,,,,,
7093,40.7888,-74.011533,hudson,NJ,1
,,,,,
7094,40.78885,-74.056035,hudson,NJ,1
,,,,,
7302,40.726001,-74.047304,hudson,NJ,2
,,,,,
7450,40.982247,-74.11207,bergen,NJ,1
,,,,,
7470,40.948689,-74.241168,passaic,NJ,1
,,,,,
7514,40.928748,-74.143187,passaic,NJ,2
,,,,,
7601,40.913482,-74.001623,bergen,NJ,1
,,,,,
7646,40.932998,-74.017633,bergen,NJ,1
,,,,,
7649,40.955347,-74.026983,bergen,NJ,1
,,,,,
7726,40.2697,-74.265539,monmouth,NJ,1
,,,,,
7731,40.258361,-74.19678,monmouth,NJ,2
,,,,,
7750,40.277757,-74.194702,monmouth,NJ,1
,,,,,
7751,40.319979,-74.214488,monmouth,NJ,1
,,,,,
7756,40.278922,-74.123285,monmouth,NJ,1
,,,,,
7834,40.881248,-74.489349,morris,NJ,1
,,,,,
7840,40.868804,-74.844734,warren,NJ,2
,,,,,
7856,40.874049,-74.73433,morris,NJ,1
,,,,,
7871,41.040597,-74.718191,sussex,NJ,1
,,,,,
7901,40.71275,-74.361594,union,NJ,1
,,,,,
7950,40.843399,-74.540341,morris,NJ,1
,,,,,
7960,40.77165,-74.506256,morris,NJ,1
,,,,,
8020,39.796706,-75.218852,gloucester,NJ,1
,,,,,
8036,39.987212,-74.829308,burlington,NJ,1
,,,,,
8062,39.715857,-75.235017,gloucester,NJ,1
,,,,,
8083,39.844063,-75.022163,camden,NJ,1
,,,,,
8109,39.950312,-75.059916,camden,NJ,1
,,,,,
8247,39.047882,-74.77505,cape may,NJ,1
,,,,,
8326,39.533843,-74.934493,atlantic,NJ,1
,,,,,
8401,39.486848,-74.643014,atlantic,NJ,1
,,,,,
8512,40.323116,-74.516597,middlesex,NJ,1
,,,,,
8724,39.938047,-74.17109,ocean,NJ,1
,,,,,
8759,39.945798,-74.29782,ocean,NJ,1
,,,,,
8823,40.440604,-74.560249,somerset,NJ,1
,,,,,
8833,40.635369,-74.829976,hunterdon,NJ,1
,,,,,
8844,NA,NA,somerset,NJ,1
,,,,,
8850,40.448255,-74.444395,middlesex,NJ,1
,,,,,
8873,40.491002,-74.523648,somerset,NJ,1
,,,,,
8901,40.486754,-74.444395,middlesex,NJ,1
,,,,,
8904,40.499866,-74.428095,middlesex,NJ,1
,,,,,
9173,NA,NA,,AE,1
,,,,,
10010,40.739024,-73.983542,new york,NY,1
,,,,,
10011,40.740916,-73.999769,new york,NY,1
,,,,,
10014,40.738088,-74.005095,new york,NY,1
,,,,,
10016,40.745527,-73.978449,new york,NY,2
,,,,,
10019,40.765926,-73.985443,new york,NY,2
,,,,,
10021,40.768823,-73.960257,new york,NY,2
,,,,,
10023,40.776765,-73.982213,new york,NY,3
,,,,,
10025,40.798664,-73.967778,new york,NY,1
,,,,,
10026,40.802918,-73.953107,new york,NY,1
,,,,,
10028,40.776629,-73.953914,new york,NY,1
,,,,,
10037,40.813884,-73.938498,new york,NY,1
,,,,,
10044,40.761812,-73.950521,new york,NY,1
,,,,,
10128,40.780989,-73.95158,new york,NY,1
,,,,,
10309,40.531767,-74.218779,richmond,NY,1
,,,,,
10471,40.899178,-73.898677,bronx,NY,1
,,,,,
10504,41.075185,-73.761247,westchester,NY,1
,,,,,
10520,41.122622,-73.867258,westchester,NY,1
,,,,,
10530,41.019105,-73.812077,westchester,NY,1
,,,,,
10537,41.394819,-73.718016,putnam,NY,1
,,,,,
10552,41.011586,-73.798391,westchester,NY,1
,,,,,
10560,41.331814,-73.608451,westchester,NY,1
,,,,,
10562,41.109701,-73.827995,westchester,NY,3
,,,,,
10566,41.28383,-73.893116,westchester,NY,1
,,,,,
10591,41.089703,-73.844034,westchester,NY,1
,,,,,
10801,41.035123,-73.801401,westchester,NY,1
,,,,,
10956,41.149494,-73.98827,rockland,NY,1
,,,,,
11040,40.729351,-73.682824,nassau,NY,1
,,,,,
11050,40.754757,-73.601772,nassau,NY,3
,,,,,
11109,40.651378,-73.870779,queens,NY,1
,,,,,
11201,40.694481,-73.989319,kings,NY,2
,,,,,
11209,40.622459,-74.028749,kings,NY,1
,,,,,
11215,40.664322,-73.984132,kings,NY,2
,,,,,
11218,40.64434,-73.978411,kings,NY,1
,,,,,
11222,40.728388,-73.945754,kings,NY,1
,,,,,
11225,40.661096,-73.952295,kings,NY,1
,,,,,
11228,40.624552,-73.989853,kings,NY,1
,,,,,
11235,40.584455,-73.948402,kings,NY,1
,,,,,
11236,40.65701,-73.91581,kings,NY,1
,,,,,
11238,40.680593,-73.963928,kings,NY,1
,,,,,
11545,40.754757,-73.601772,nassau,NY,1
,,,,,
11558,40.606953,-73.654724,nassau,NY,1
,,,,,
11565,40.674652,-73.673324,nassau,NY,1
,,,,,
11721,40.893197,-73.370462,suffolk,NY,1
,,,,,
11735,40.754757,-73.601772,nassau,NY,2
,,,,,
11747,40.787248,-73.405573,suffolk,NY,1
,,,,,
11946,40.922326,-72.637078,suffolk,NY,1
,,,,,
12047,42.647039,-73.739349,albany,NY,1
,,,,,
12065,42.850576,-73.792524,saratoga,NY,1
,,,,,
12180,42.673701,-73.608792,rensselaer,NY,1
,,,,,
12203,42.700345,-73.857496,albany,NY,1
,,,,,
12345,42.833261,-74.058015,schenectady,NY,1
,,,,,
12518,41.348593,-74.135167,orange,NY,1
,,,,,
12601,41.695839,-73.896164,dutchess,NY,1
,,,,,
12834,43.212754,-73.434261,washington,NY,1
,,,,,
12866,43.101145,-73.850623,saratoga,NY,1
,,,,,
12946,44.130663,-73.734652,essex,NY,1
,,,,,
13021,42.894381,-76.565683,cayuga,NY,3
,,,,,
13026,42.755979,-76.646007,cayuga,NY,1
,,,,,
13032,43.005767,-75.798607,madison,NY,1
,,,,,
13108,42.948057,-76.329799,onondaga,NY,1
,,,,,
13111,43.258337,-76.6292,cayuga,NY,1
,,,,,
13203,43.062016,-76.134145,onondaga,NY,1
,,,,,
13204,43.055766,-76.177597,onondaga,NY,1
,,,,,
13207,43.012216,-76.170596,onondaga,NY,1
,,,,,
13403,43.172019,-75.27371,oneida,NY,1
,,,,,
13440,43.20886,-75.383365,oneida,NY,1
,,,,,
13480,42.926167,-75.360922,oneida,NY,1
,,,,,
13622,44.091892,-76.108527,jefferson,NY,1
,,,,,
13775,42.32887,-75.136628,delaware,NY,1
,,,,,
13849,42.382962,-75.292321,otsego,NY,1
,,,,,
14031,42.992968,-78.601269,erie,NY,1
,,,,,
14067,43.208166,-78.56623,niagara,NY,1
,,,,,
14120,43.179206,-78.808908,niagara,NY,1
,,,,,
14212,42.894558,-78.818805,erie,NY,1
,,,,,
14218,42.814558,-78.807754,erie,NY,1
,,,,,
14221,42.968507,-78.749153,erie,NY,1
,,,,,
14222,42.918207,-78.875007,erie,NY,1
,,,,,
14223,42.974607,-78.850507,erie,NY,1
,,,,,
14226,42.974389,-78.794905,erie,NY,1
,,,,,
14261,42.768413,-78.887094,erie,NY,1
,,,,,
14445,43.113563,-77.482538,monroe,NY,1
,,,,,
14456,42.857414,-77.034883,ontario,NY,2
,,,,,
14469,42.869556,-77.465843,ontario,NY,1
,,,,,
14472,42.982513,-77.606771,monroe,NY,1
,,,,,
14506,43.001323,-77.504268,monroe,NY,1
,,,,,
14534,43.060229,-77.520692,monroe,NY,2
,,,,,
14543,42.996613,-77.666524,monroe,NY,1
,,,,,
14550,42.674209,-78.084485,wyoming,NY,1
,,,,,
14559,43.185709,-77.830577,monroe,NY,1
,,,,,
14569,42.740223,-78.164804,wyoming,NY,1
,,,,,
14607,43.152013,-77.584888,monroe,NY,1
,,,,,
14608,43.154611,-77.624001,monroe,NY,1
,,,,,
14610,43.140163,-77.557871,monroe,NY,1
,,,,,
14612,43.257111,-77.67824,monroe,NY,3
,,,,,
14618,43.112163,-77.561771,monroe,NY,1
,,,,,
14626,43.190312,-77.720018,monroe,NY,1
,,,,,
14711,42.320366,-78.12964,allegany,NY,1
,,,,,
14733,42.126604,-79.182837,chautauqua,NY,1
,,,,,
14830,42.120541,-77.048462,steuben,NY,1
,,,,,
14886,42.4803,-76.635158,tompkins,NY,1
,,,,,
15005,40.618418,-80.204103,beaver,PA,1
,,,,,
15037,40.271965,-79.896642,allegheny,PA,1
,,,,,
15061,40.656366,-80.327814,beaver,PA,1
,,,,,
15085,40.382668,-79.594643,westmoreland,PA,1
,,,,,
15090,40.434436,-80.024817,allegheny,PA,1
,,,,,
15108,40.469268,-80.140228,allegheny,PA,1
,,,,,
15116,40.357719,-79.979974,allegheny,PA,1
,,,,,
15120,40.392619,-79.905171,allegheny,PA,1
,,,,,
15122,40.360575,-79.908621,allegheny,PA,1
,,,,,
15143,40.451367,-80.20828,allegheny,PA,1
,,,,,
15202,40.328598,-79.949182,allegheny,PA,1
,,,,,
15209,40.392719,-80.042375,allegheny,PA,1
,,,,,
15212,40.428169,-80.074977,allegheny,PA,1
,,,,,
15213,40.423069,-79.980624,allegheny,PA,1
,,,,,
15217,40.385219,-80.054876,allegheny,PA,1
,,,,,
15218,40.434436,-80.024817,allegheny,PA,2
,,,,,
15219,40.375351,-80.017075,allegheny,PA,1
,,,,,
15221,40.414611,-80.043342,allegheny,PA,2
,,,,,
15223,40.457418,-80.044926,allegheny,PA,1
,,,,,
15227,40.380519,-79.966723,allegheny,PA,1
,,,,,
15233,40.434436,-80.024817,allegheny,PA,1
,,,,,
15235,40.398608,-80.000854,allegheny,PA,1
,,,,,
15239,40.434436,-80.024817,allegheny,PA,1
,,,,,
15401,39.944884,-79.770063,fayette,PA,1
,,,,,
15613,40.436827,-79.617178,westmoreland,PA,1
,,,,,
15642,40.36502,-79.58406,westmoreland,PA,1
,,,,,
15904,40.319279,-78.828084,cambria,PA,1
,,,,,
16046,40.866316,-79.936986,butler,PA,2
,,,,,
16066,40.709713,-80.104597,butler,PA,1
,,,,,
17013,40.168495,-77.228817,cumberland,PA,1
,,,,,
17044,40.564909,-77.630152,mifflin,PA,1
,,,,,
17055,40.180953,-77.177086,cumberland,PA,1
,,,,,
17070,40.263875,-76.898096,cumberland,PA,1
,,,,,
17257,40.070789,-77.45983,cumberland,PA,1
,,,,,
17331,39.935502,-76.672739,york,PA,1
,,,,,
17345,39.95406,-76.835812,york,PA,1
,,,,,
17353,39.882976,-77.393593,adams,PA,1
,,,,,
17543,40.134761,-76.455212,lancaster,PA,1
,,,,,
17560,39.912288,-76.237428,lancaster,PA,1
,,,,,
17601,40.076553,-76.31068,lancaster,PA,2
,,,,,
17603,40.009147,-76.367132,lancaster,PA,2
,,,,,
17701,41.266716,-76.958314,lycoming,PA,1
,,,,,
17754,41.307308,-76.881055,lycoming,PA,2
,,,,,
18018,40.625297,-75.379174,northampton,PA,1
,,,,,
18020,40.669251,-75.334887,northampton,PA,1
,,,,,
18034,40.543998,-75.41242,lehigh,PA,1
,,,,,
18049,40.520705,-75.496131,lehigh,PA,1
,,,,,
18073,40.374347,-75.482175,montgomery,PA,1
,,,,,
18104,40.621048,-75.545306,lehigh,PA,1
,,,,,
18326,41.152364,-75.276395,monroe,PA,1
,,,,,
18411,41.463694,-75.681992,lackawanna,PA,1
,,,,,
18471,41.523812,-75.690608,lackawanna,PA,1
,,,,,
18612,41.271121,-75.999621,luzerne,PA,1
,,,,,
18630,41.27708,-75.960156,wyoming,PA,1
,,,,,
18708,41.24083,-75.947216,luzerne,PA,1
,,,,,
18901,40.334863,-75.118737,bucks,PA,1
,,,,,
18944,40.390196,-75.233253,bucks,PA,1
,,,,,
18951,40.452525,-75.221391,bucks,PA,2
,,,,,
18956,40.262783,-75.01568,bucks,PA,1
,,,,,
18974,40.208476,-75.040613,bucks,PA,1
,,,,,
19001,40.123805,-75.114767,montgomery,PA,1
,,,,,
19002,40.180876,-75.215621,montgomery,PA,1
,,,,,
19003,39.998811,-75.30793,delaware,PA,3
,,,,,
19008,39.972965,-75.365635,delaware,PA,1
,,,,,
19010,39.955561,-75.344833,delaware,PA,2
,,,,,
19014,39.866766,-75.398537,delaware,PA,1
,,,,,
19026,39.937562,-75.307731,delaware,PA,1
,,,,,
19044,40.191808,-75.150577,montgomery,PA,1
,,,,,
19050,39.914562,-75.29458,delaware,PA,1
,,,,,
19063,39.918804,-75.399118,delaware,PA,1
,,,,,
19072,40.020911,-75.259975,montgomery,PA,1
,,,,,
19078,39.878212,-75.323082,delaware,PA,1
,,,,,
19085,40.027909,-75.369458,delaware,PA,1
,,,,,
19087,39.98596,-75.370934,delaware,PA,1
,,,,,
19096,40.051411,-75.164822,montgomery,PA,1
,,,,,
19102,39.952562,-75.166472,philadelphia,PA,1
,,,,,
19104,39.960912,-75.19668,philadelphia,PA,1
,,,,,
19116,40.104709,-75.006771,philadelphia,PA,1
,,,,,
19119,40.068142,-75.123024,philadelphia,PA,1
,,,,,
19121,39.983212,-75.174172,philadelphia,PA,1
,,,,,
19127,40.024761,-75.222473,philadelphia,PA,1
,,,,,
19128,40.049111,-75.178489,philadelphia,PA,1
,,,,,
19141,40.009611,-75.15032,philadelphia,PA,1
,,,,,
19143,39.957312,-75.187023,philadelphia,PA,1
,,,,,
19146,39.945112,-75.175822,philadelphia,PA,1
,,,,,
19147,39.936212,-75.155973,philadelphia,PA,1
,,,,,
19148,39.950362,-75.155371,philadelphia,PA,1
,,,,,
19301,40.040057,-75.488793,chester,PA,1
,,,,,
19335,40.031265,-75.722614,chester,PA,1
,,,,,
19355,40.02951,-75.713599,chester,PA,2
,,,,,
19380,39.980107,-75.610503,chester,PA,2
,,,,,
19401,40.149154,-75.356627,montgomery,PA,1
,,,,,
19406,40.179242,-75.388022,montgomery,PA,1
,,,,,
19422,40.15755,-75.279941,montgomery,PA,1
,,,,,
19425,40.103858,-75.639994,chester,PA,1
,,,,,
19426,40.236083,-75.430272,montgomery,PA,2
,,,,,
19428,40.082509,-75.304377,montgomery,PA,1
,,,,,
19460,40.128175,-75.541769,chester,PA,1
,,,,,
19462,40.137759,-75.352751,montgomery,PA,1
,,,,,
19520,40.156293,-75.786492,chester,PA,1
,,,,,
19522,40.326392,-75.808303,berks,PA,1
,,,,,
19539,40.432311,-75.796571,berks,PA,1
,,,,,
19565,40.337188,-75.951748,berks,PA,1
,,,,,
19720,39.592895,-75.651466,new castle,DE,1
,,,,,
19805,39.743107,-75.593447,new castle,DE,1
,,,,,
19808,39.735912,-75.664729,new castle,DE,1
,,,,,
19904,39.160542,-75.597381,kent,DE,1
,,,,,
19931,38.569091,-75.624087,sussex,DE,1
,,,,,
19963,38.72712,-75.322829,sussex,DE,1
,,,,,
19971,38.629763,-75.319975,sussex,DE,1
,,,,,
20002,38.908218,-76.982147,district of columbia,DC,2
,,,,,
20007,38.914561,-77.075649,district of columbia,DC,1
,,,,,
20008,38.93521,-77.060399,district of columbia,DC,3
,,,,,
20009,38.919261,-77.039798,district of columbia,DC,2
,,,,,
20010,38.932711,-77.030248,district of columbia,DC,1
,,,,,
20011,38.95261,-77.017898,district of columbia,DC,1
,,,,,
20015,38.96926,-77.070949,district of columbia,DC,2
,,,,,
20016,38.93826,-77.091149,district of columbia,DC,2
,,,,,
20110,38.749207,-77.487762,manassas city,VA,1
,,,,,
20112,38.770864,-77.449443,manassas park city,VA,1
,,,,,
20140,38.916291,-77.864841,fauquier,VA,1
,,,,,
20147,39.037339,-77.480542,loudoun,VA,2
,,,,,
20165,39.047157,-77.386647,loudoun,VA,2
,,,,,
20170,38.983887,-77.367457,fairfax,VA,1
,,,,,
20171,38.92518,-77.39284,fairfax,VA,2
,,,,,
20187,38.715296,-77.741696,fauquier,VA,1
,,,,,
20190,38.96146,-77.3418,fairfax,VA,1
,,,,,
20602,38.518559,-76.912165,charles,MD,1
,,,,,
20708,39.049859,-76.834493,prince georges,MD,1
,,,,,
20744,38.757114,-76.977596,prince georges,MD,1
,,,,,
20814,39.00452,-77.1046,montgomery,MD,2
,,,,,
20837,39.123705,-77.403211,montgomery,MD,1
,,,,,
20850,39.089557,-77.184127,montgomery,MD,3
,,,,,
20855,39.142857,-77.138145,montgomery,MD,1
,,,,,
20866,39.105644,-76.935861,montgomery,MD,1
,,,,,
20868,39.122262,-76.972157,montgomery,MD,1
,,,,,
20872,39.285477,-77.215203,montgomery,MD,1
,,,,,
20874,39.135512,-77.282223,montgomery,MD,1
,,,,,
20878,39.091857,-77.198452,montgomery,MD,1
,,,,,
20886,39.175703,-77.18725,montgomery,MD,1
,,,,,
20895,39.09538,-77.111555,montgomery,MD,2
,,,,,
20901,39.036289,-77.010948,montgomery,MD,1
,,,,,
20902,39.039974,-77.044449,montgomery,MD,1
,,,,,
20903,39.015209,-76.980597,montgomery,MD,1
,,,,,
20904,39.066844,-76.996866,montgomery,MD,1
,,,,,
20906,39.083978,-77.061278,montgomery,MD,1
,,,,,
21009,39.472579,-76.277279,harford,MD,1
,,,,,
21042,39.261897,-76.897247,howard,MD,2
,,,,,
21046,39.175406,-76.834945,howard,MD,2
,,,,,
21084,39.552706,-76.419734,harford,MD,1
,,,,,
21102,39.556164,-76.870849,carroll,MD,1
,,,,,
21113,38.975412,-76.586886,anne arundel,MD,2
,,,,,
21114,39.06436,-76.622577,anne arundel,MD,1
,,,,,
21201,39.296536,-76.623489,baltimore city,MD,1
,,,,,
21204,39.407156,-76.60379,baltimore,MD,1
,,,,,
21205,39.302757,-76.567987,baltimore city,MD,2
,,,,,
21207,39.325605,-76.736594,baltimore,MD,1
,,,,,
21208,39.385156,-76.727036,baltimore,MD,1
,,,,,
21222,39.325991,-76.451733,baltimore,MD,1
,,,,,
21224,39.279207,-76.557237,baltimore city,MD,1
,,,,,
21501,39.580691,-78.690593,allegany,MD,1
,,,,,
21601,38.800714,-76.051486,talbot,MD,1
,,,,,
21619,38.946034,-76.279172,queen annes,MD,1
,,,,,
21620,39.235988,-76.059316,kent,MD,1
,,,,,
21662,38.713532,-76.196838,talbot,MD,1
,,,,,
21702,39.492596,-77.461211,frederick,MD,1
,,,,,
21704,39.345477,-77.383229,frederick,MD,1
,,,,,
21716,39.317945,-77.624701,frederick,MD,1
,,,,,
21773,39.550036,-77.556275,frederick,MD,1
,,,,,
21774,39.432571,-77.220932,frederick,MD,1
,,,,,
21783,39.591355,-77.614762,washington,MD,1
,,,,,
21788,39.610876,-77.398931,frederick,MD,1
,,,,,
22003,38.835762,-77.212794,fairfax,VA,1
,,,,,
22030,38.853231,-77.305097,fairfax city,VA,1
,,,,,
22031,38.853962,-77.284195,fairfax city,VA,2
,,,,,
22032,38.819712,-77.287105,fairfax,VA,1
,,,,,
22043,38.899361,-77.189502,fairfax,VA,1
,,,,,
22044,38.858853,-77.154761,fairfax,VA,1
,,,,,
22046,38.884936,-77.174052,falls church city,VA,1
,,,,,
22101,38.935202,-77.18672,fairfax,VA,1
,,,,,
22124,38.892796,-77.329906,fairfax,VA,1
,,,,,
22180,38.897361,-77.253749,fairfax,VA,1
,,,,,
22182,38.935292,-77.268022,fairfax,VA,2
,,,,,
22191,38.625541,-77.271644,prince william,VA,1
,,,,,
22193,38.643765,-77.345106,prince william,VA,1
,,,,,
22202,38.854462,-77.059721,arlington,VA,1
,,,,,
22204,38.860335,-77.100868,arlington,VA,2
,,,,,
22209,38.893596,-77.110376,arlington,VA,2
,,,,,
22306,38.758914,-77.087344,fairfax,VA,1
,,,,,
22307,38.771363,-77.065699,fairfax,VA,1
,,,,,
22315,38.759553,-77.148518,fairfax,VA,1
,,,,,
22405,38.336458,-77.436618,stafford,VA,1
,,,,,
22407,38.271969,-77.606772,spotsylvania,VA,1
,,,,,
22508,38.308398,-77.796156,orange,VA,2
,,,,,
22546,37.948572,-77.437767,caroline,VA,1
,,,,,
22554,38.438958,-77.4354,stafford,VA,1
,,,,,
22620,39.048614,-78.060132,clarke,VA,1
,,,,,
22827,38.4009,-78.729679,rockingham,VA,1
,,,,,
22902,38.026588,-78.48045,charlottesville city,VA,1
,,,,,
22903,38.033938,-78.492384,charlottesville city,VA,1
,,,,,
22911,38.099507,-78.408498,albemarle,VA,1
,,,,,
22947,38.053137,-78.339571,albemarle,VA,1
,,,,,
23035,37.410286,-76.294103,mathews,VA,1
,,,,,
23086,37.677991,-77.028495,king william,VA,1
,,,,,
23103,37.663224,-77.791971,goochland,VA,1
,,,,,
23111,37.628179,-77.281955,hanover,VA,1
,,,,,
23185,37.273209,-76.732423,james city,VA,1
,,,,,
23228,37.624988,-77.49592,henrico,VA,1
,,,,,
23235,37.494147,-77.556501,chesterfield,VA,1
,,,,,
23238,37.733844,-77.888082,goochland,VA,2
,,,,,
23434,36.704592,-76.636158,suffolk city,VA,1
,,,,,
23435,36.837412,-76.477756,suffolk city,VA,1
,,,,,
23436,36.886856,-76.523388,suffolk city,VA,1
,,,,,
23451,36.856348,-76.053568,virginia beach city,VA,3
,,,,,
23454,36.828586,-76.070772,virginia beach city,VA,2
,,,,,
23455,36.888865,-76.146757,virginia beach city,VA,1
,,,,,
23663,37.034207,-76.319364,hampton city,VA,1
,,,,,
23666,37.060646,-76.371616,hampton city,VA,1
,,,,,
23836,37.347458,-77.338551,chesterfield,VA,1
,,,,,
24015,37.253866,-79.974559,roanoke city,VA,1
,,,,,
24060,37.256283,-80.43473,montgomery,VA,2
,,,,,
24065,37.098391,-79.95233,franklin,VA,1
,,,,,
24138,37.06488,-80.32637,montgomery,VA,1
,,,,,
24141,37.119732,-80.556541,radford,VA,2
,,,,,
24153,37.28814,-80.067762,salem,VA,3
,,,,,
24179,37.275674,-79.877505,roanoke,VA,2
,,,,,
24354,36.832324,-81.597841,smyth,VA,1
,,,,,
24401,38.157368,-79.065116,staunton city,VA,1
,,,,,
24460,38.055311,-79.746367,bath,VA,1
,,,,,
24473,37.883036,-79.448586,rockbridge,VA,1
,,,,,
24523,37.336027,-79.522585,bedford city,VA,1
,,,,,
24592,36.679767,-78.952947,halifax,VA,1
,,,,,
25301,38.328948,-81.605094,kanawha,WV,1
,,,,,
25311,38.371957,-81.632845,kanawha,WV,1
,,,,,
25314,38.32925,-81.665927,kanawha,WV,1
,,,,,
25411,39.552557,-78.18773,morgan,WV,1
,,,,,
26201,38.975479,-80.240664,upshur,WV,1
,,,,,
26288,38.483244,-80.447555,webster,WV,1
,,,,,
27012,36.081218,-80.328298,forsyth,NC,1
,,,,,
27106,36.149337,-80.325815,forsyth,NC,1
,,,,,
27107,36.04803,-80.182863,forsyth,NC,1
,,,,,
27215,36.091025,-79.430129,alamance,NC,1
,,,,,
27278,36.077432,-79.085469,orange,NC,1
,,,,,
27295,35.813292,-80.277877,davidson,NC,1
,,,,,
27514,36.004647,-79.054475,orange,NC,2
,,,,,
27516,35.946263,-79.136862,orange,NC,1
,,,,,
27519,35.76812,-78.829548,wake,NC,2
,,,,,
27542,35.571141,-78.287178,johnston,NC,1
,,,,,
27545,35.788031,-78.459605,wake,NC,1
,,,,,
27587,35.858041,-78.586534,wake,NC,1
,,,,,
27604,35.837111,-78.555342,wake,NC,4
,,,,,
27606,35.715972,-78.747741,wake,NC,1
,,,,,
27610,35.7429,-78.564443,wake,NC,1
,,,,,
27612,35.821942,-78.675135,wake,NC,1
,,,,,
27705,36.019354,-78.899525,durham,NC,2
,,,,,
27707,35.94816,-78.941599,durham,NC,1
,,,,,
27709,36.051155,-78.857651,durham,NC,1
,,,,,
27712,36.091848,-78.908043,durham,NC,1
,,,,,
27713,35.911215,-78.917768,durham,NC,2
,,,,,
27909,36.293633,-76.271958,pasquotank,NC,1
,,,,,
27921,36.389961,-76.199736,camden,NC,1
,,,,,
27944,36.168529,-76.373128,perquimans,NC,1
,,,,,
28036,35.283427,-80.844594,mecklenburg,NC,1
,,,,,
28056,35.242038,-81.169072,gaston,NC,1
,,,,,
28092,35.485145,-81.181799,lincoln,NC,1
,,,,,
28115,35.688136,-80.819825,iredell,NC,1
,,,,,
28137,35.454142,-80.283764,stanly,NC,1
,,,,,
28152,35.329336,-81.580919,cleveland,NC,1
,,,,,
28205,35.325959,-80.827444,mecklenburg,NC,1
,,,,,
28208,35.209125,-80.92175,mecklenburg,NC,1
,,,,,
28226,35.108637,-80.82747,mecklenburg,NC,1
,,,,,
28227,35.136591,-80.711197,mecklenburg,NC,1
,,,,,
28333,35.266919,-78.025587,wayne,NC,1
,,,,,
28467,33.911953,-78.395641,brunswick,NC,1
,,,,,
28590,35.47461,-77.327423,pitt,NC,1
,,,,,
28601,35.758221,-81.308224,catawba,NC,2
,,,,,
28650,35.588869,-81.162793,catawba,NC,1
,,,,,
28732,35.370666,-82.494647,henderson,NC,1
,,,,,
28739,35.318016,-82.45034,henderson,NC,2
,,,,,
28778,35.608576,-82.453107,buncombe,NC,1
,,,,,
29229,34.12266,-80.884194,richland,SC,1
,,,,,
29403,32.822391,-79.965464,charleston,SC,1
,,,,,
29445,33.057972,-80.010088,berkeley,SC,1
,,,,,
29451,32.807206,-79.760516,charleston,SC,1
,,,,,
29464,32.847273,-79.820563,charleston,SC,1
,,,,,
29483,33.040201,-80.431751,dorchester,SC,1
,,,,,
29502,34.200994,-79.784721,florence,SC,1
,,,,,
29672,34.773984,-82.945651,oconee,SC,1
,,,,,
29681,34.80728,-82.266734,greenville,SC,1
,,,,,
29745,34.991814,-81.208605,york,SC,1
,,,,,
29829,33.641442,-81.79287,aiken,SC,1
,,,,,
29841,33.466705,-81.739059,aiken,SC,1
,,,,,
29926,32.207724,-80.747577,beaufort,SC,1
,,,,,
30005,34.078229,-84.228131,fulton,GA,1
,,,,,
30019,33.988309,-83.879494,gwinnett,GA,1
,,,,,
30024,34.042479,-84.026171,gwinnett,GA,1
,,,,,
30028,34.193041,-84.092588,forsyth,GA,1
,,,,,
30030,33.772554,-84.291723,dekalb,GA,1
,,,,,
30033,33.816452,-84.285772,dekalb,GA,2
,,,,,
30044,33.941847,-84.070567,gwinnett,GA,1
,,,,,
30045,33.936729,-83.957347,gwinnett,GA,1
,,,,,
30047,33.865587,-84.072463,gwinnett,GA,1
,,,,,
30062,33.982269,-84.48803,cobb,GA,1
,,,,,
30064,33.923652,-84.629241,cobb,GA,1
,,,,,
30066,34.024849,-84.498365,cobb,GA,1
,,,,,
30075,34.055198,-84.370475,fulton,GA,2
,,,,,
30082,33.856754,-84.534496,cobb,GA,1
,,,,,
30083,33.786405,-84.203419,dekalb,GA,1
,,,,,
30084,33.853945,-84.215369,dekalb,GA,1
,,,,,
30092,33.910725,-84.138468,gwinnett,GA,1
,,,,,
30093,33.932173,-84.181881,gwinnett,GA,1
,,,,,
30097,34.006019,-84.144674,gwinnett,GA,1
,,,,,
30108,33.587706,-85.123883,carroll,GA,1
,,,,,
30115,34.199345,-84.419935,cherokee,GA,1
,,,,,
30126,33.833161,-84.603102,cobb,GA,2
,,,,,
30127,33.91351,-84.685885,cobb,GA,1
,,,,,
30135,33.667491,-84.750615,douglas,GA,1
,,,,,
30143,34.469042,-84.428243,pickens,GA,1
,,,,,
30145,34.233908,-84.962055,bartow,GA,1
,,,,,
30189,34.147985,-84.47725,cherokee,GA,1
,,,,,
30263,33.369595,-84.819397,coweta,GA,2
,,,,,
30306,33.787804,-84.359775,fulton,GA,1
,,,,,
30307,33.762855,-84.357375,fulton,GA,2
,,,,,
30314,33.757806,-84.433649,fulton,GA,2
,,,,,
30315,33.697257,-84.383725,fulton,GA,1
,,,,,
30316,33.726906,-84.358525,fulton,GA,1
,,,,,
30318,33.792005,-84.442778,fulton,GA,4
,,,,,
30328,33.933543,-84.395777,fulton,GA,1
,,,,,
30329,33.826553,-84.324874,dekalb,GA,1
,,,,,
30340,33.893201,-84.253871,dekalb,GA,1
,,,,,
30342,33.881052,-84.379476,fulton,GA,1
,,,,,
30345,33.845603,-84.281422,dekalb,GA,2
,,,,,
30519,34.079715,-83.930765,gwinnett,GA,1
,,,,,
30546,34.906339,-83.72739,towns,GA,1
,,,,,
30605,33.923088,-83.364038,clarke,GA,1
,,,,,
30720,34.791428,-84.992771,whitfield,GA,1
,,,,,
30904,33.478686,-82.015988,richmond,GA,1
,,,,,
31030,32.560698,-83.854528,peach,GA,1
,,,,,
31047,32.454331,-83.646436,houston,GA,1
,,,,,
31320,31.778847,-81.420626,liberty,GA,1
,,,,,
31401,32.072257,-81.135618,chatham,GA,1
,,,,,
31410,32.017461,-80.997043,chatham,GA,1
,,,,,
31522,31.213223,-81.449141,glynn,GA,1
,,,,,
31602,30.893109,-83.327812,lowndes,GA,2
,,,,,
31792,30.825551,-83.950795,thomas,GA,1
,,,,,
31906,32.493455,-84.95328,muscogee,GA,1
,,,,,
32114,29.146163,-81.053368,volusia,FL,2
,,,,,
32137,29.564391,-81.201389,flagler,FL,2
,,,,,
32159,28.923468,-81.894367,lake,FL,1
,,,,,
32162,NA,NA,sumter,FL,1
,,,,,
32174,29.30766,-81.177846,volusia,FL,1
,,,,,
32177,29.611093,-81.785957,putnam,FL,1
,,,,,
32210,30.274539,-81.786671,duval,FL,1
,,,,,
32224,30.24359,-81.715976,duval,FL,1
,,,,,
32259,29.877289,-81.561245,saint johns,FL,1
,,,,,
32303,30.535698,-84.247698,leon,FL,1
,,,,,
32308,30.556205,-84.176838,leon,FL,1
,,,,,
32311,30.433478,-84.135913,leon,FL,1
,,,,,
32317,30.479347,-84.346204,leon,FL,1
,,,,,
32401,30.1922,-85.663027,bay,FL,1
,,,,,
32408,30.165546,-85.711603,bay,FL,1
,,,,,
32444,30.094456,-85.537104,bay,FL,1
,,,,,
32459,30.513484,-86.160893,walton,FL,1
,,,,,
32504,30.488696,-87.214171,escambia,FL,1
,,,,,
32526,30.493102,-87.359621,escambia,FL,1
,,,,,
32549,30.661155,-86.594479,okaloosa,FL,1
,,,,,
32563,30.659159,-87.04972,santa rosa,FL,1
,,,,,
32578,30.687036,-86.566325,okaloosa,FL,1
,,,,,
32603,29.718807,-82.353874,alachua,FL,1
,,,,,
32669,29.687249,-82.564624,alachua,FL,1
,,,,,
32708,28.690114,-81.222547,seminole,FL,2
,,,,,
32712,28.731322,-81.537602,orange,FL,1
,,,,,
32720,29.07198,-81.403355,volusia,FL,1
,,,,,
32725,28.900274,-81.245074,volusia,FL,1
,,,,,
32784,28.925371,-81.680144,lake,FL,1
,,,,,
32827,28.399634,-81.290418,orange,FL,1
,,,,,
32935,28.210733,-80.680583,brevard,FL,1
,,,,,
32951,27.953124,-80.634,brevard,FL,1
,,,,,
32958,27.799123,-80.483098,indian river,FL,1
,,,,,
33019,26.091514,-80.192966,broward,FL,1
,,,,,
33027,26.039737,-80.365429,broward,FL,1
,,,,,
33037,24.963509,-80.961294,monroe,FL,1
,,,,,
33040,24.655692,-81.382372,monroe,FL,1
,,,,,
33138,25.852073,-80.182118,miami-dade,FL,1
,,,,,
33139,25.787326,-80.156368,miami-dade,FL,1
,,,,,
33141,25.848623,-80.144617,miami-dade,FL,1
,,,,,
33143,25.558428,-80.458168,miami-dade,FL,1
,,,,,
33170,25.558428,-80.458168,miami-dade,FL,1
,,,,,
33173,25.558428,-80.458168,miami-dade,FL,1
,,,,,
33187,25.558428,-80.458168,miami-dade,FL,1
,,,,,
33321,26.144589,-80.26052,broward,FL,1
,,,,,
33328,26.105514,-80.255133,broward,FL,1
,,,,,
33332,26.059583,-80.414605,broward,FL,1
,,,,,
33410,26.598446,-80.054613,palm beach,FL,1
,,,,,
33433,26.350274,-80.158367,palm beach,FL,1
,,,,,
33437,26.513629,-80.174297,palm beach,FL,1
,,,,,
33442,26.301407,-80.138516,broward,FL,1
,,,,,
33445,26.548504,-80.100015,palm beach,FL,1
,,,,,
33455,27.050934,-80.158594,martin,FL,1
,,,,,
33458,26.645895,-80.430269,palm beach,FL,1
,,,,,
33498,26.39341,-80.222751,palm beach,FL,1
,,,,,
33534,27.911823,-82.385728,hillsborough,FL,1
,,,,,
33549,28.060825,-82.391666,hillsborough,FL,1
,,,,,
33612,28.054195,-82.442683,hillsborough,FL,1
,,,,,
33620,28.059994,-82.407887,hillsborough,FL,1
,,,,,
33629,27.921056,-82.508867,hillsborough,FL,1
,,,,,
33702,27.863201,-82.631509,pinellas,FL,1
,,,,,
33703,27.816003,-82.62092,pinellas,FL,1
,,,,,
33707,27.757005,-82.726422,pinellas,FL,1
,,,,,
33711,27.733448,-82.690035,pinellas,FL,1
,,,,,
33767,27.959847,-82.828625,pinellas,FL,1
,,,,,
33776,27.850547,-82.826267,pinellas,FL,1
,,,,,
33801,28.059997,-81.956122,polk,FL,1
,,,,,
33825,27.473059,-81.464053,highlands,FL,1
,,,,,
33830,27.918445,-81.790794,polk,FL,1
,,,,,
33837,28.164093,-81.647317,polk,FL,1
,,,,,
33897,NA,NA,polk,FL,1
,,,,,
33901,26.564355,-81.925065,lee,FL,1
,,,,,
33912,26.563728,-81.726965,lee,FL,1
,,,,,
33947,26.884228,-82.269126,charlotte,FL,1
,,,,,
33948,26.94099,-82.20688,charlotte,FL,1
,,,,,
33993,26.678619,-82.025384,lee,FL,1
,,,,,
34114,26.014314,-81.585552,collier,FL,1
,,,,,
34212,NA,NA,manatee,FL,2
,,,,,
34217,27.485915,-82.710221,manatee,FL,1
,,,,,
34223,27.143931,-82.404959,sarasota,FL,1
,,,,,
34275,27.229227,-82.459848,sarasota,FL,1
,,,,,
34491,29.01123,-82.032463,marion,FL,1
,,,,,
34654,28.296388,-82.617095,pasco,FL,1
,,,,,
34677,28.050324,-82.677379,pinellas,FL,1
,,,,,
34684,28.084797,-82.725257,pinellas,FL,1
,,,,,
34685,28.109717,-82.692882,pinellas,FL,1
,,,,,
34689,28.092104,-82.732165,pinellas,FL,2
,,,,,
34695,28.017645,-82.747692,pinellas,FL,1
,,,,,
34698,28.010895,-82.773995,pinellas,FL,2
,,,,,
34744,28.297638,-81.32402,osceola,FL,2
,,,,,
34748,28.758895,-81.888695,lake,FL,1
,,,,,
34951,27.513925,-80.457475,saint lucie,FL,1
,,,,,
34952,27.312492,-80.313322,saint lucie,FL,1
,,,,,
34994,27.189748,-80.254768,martin,FL,1
,,,,,
35121,33.968171,-86.5535,blount,AL,1
,,,,,
35209,33.465336,-86.808213,jefferson,AL,2
,,,,,
35213,33.455408,-86.749588,jefferson,AL,1
,,,,,
35224,33.521455,-86.974735,jefferson,AL,1
,,,,,
35243,33.445932,-86.750203,jefferson,AL,1
,,,,,
35578,33.885529,-87.469627,walker,AL,1
,,,,,
35650,34.492894,-87.299281,lawrence,AL,1
,,,,,
35758,34.710815,-86.742478,madison,AL,2
,,,,,
35901,34.024285,-86.074145,etowah,AL,1
,,,,,
36104,32.373788,-86.289182,montgomery,AL,1
,,,,,
36344,31.105822,-85.690252,geneva,AL,1
,,,,,
36547,30.265325,-87.629926,baldwin,AL,1
,,,,,
36567,30.749915,-87.577231,baldwin,AL,1
,,,,,
36695,30.666959,-88.226989,mobile,AL,1
,,,,,
37064,35.890746,-86.965691,williamson,TN,1
,,,,,
37076,36.153572,-86.583994,davidson,TN,1
,,,,,
37128,35.845418,-86.486683,rutherford,TN,1
,,,,,
37205,36.108558,-86.865776,davidson,TN,1
,,,,,
37209,36.142007,-86.89995,davidson,TN,1
,,,,,
37211,36.070359,-86.718347,davidson,TN,1
,,,,,
37212,36.132607,-86.803748,davidson,TN,1
,,,,,
37215,36.086531,-86.885987,davidson,TN,2
,,,,,
37221,36.06616,-86.963852,davidson,TN,2
,,,,,
37343,35.166775,-85.21024,hamilton,TN,1
,,,,,
37377,35.175117,-85.319805,hamilton,TN,1
,,,,,
37380,35.109722,-85.655679,marion,TN,1
,,,,,
37641,36.256939,-82.690504,greene,TN,1
,,,,,
37841,36.509395,-84.517984,scott,TN,1
,,,,,
37874,35.571343,-84.410561,monroe,TN,1
,,,,,
37909,35.944822,-84.010109,knox,TN,2
,,,,,
37918,36.065908,-83.909603,knox,TN,1
,,,,,
37922,35.858018,-84.119383,knox,TN,1
,,,,,
37923,35.924795,-84.082405,knox,TN,1
,,,,,
37938,36.116665,-83.935206,knox,TN,1
,,,,,
38018,35.104589,-89.900314,shelby,TN,2
,,,,,
38049,35.443164,-89.563798,tipton,TN,1
,,,,,
38135,35.234976,-89.843594,shelby,TN,1
,,,,,
38139,35.077091,-89.759979,shelby,TN,1
,,,,,
38257,36.381482,-89.08396,obion,TN,1
,,,,,
38258,36.040631,-88.606605,carroll,TN,2
,,,,,
38340,35.407562,-88.642991,chester,TN,1
,,,,,
38355,35.813893,-88.753157,gibson,TN,1
,,,,,
38401,35.623997,-87.00404,maury,TN,1
,,,,,
38655,34.330814,-89.483519,lafayette,MS,2
,,,,,
39154,32.196072,-90.47528,hinds,MS,1
,,,,,
39560,30.374646,-89.177143,harrison,MS,1
,,,,,
39565,30.547365,-88.708582,jackson,MS,1
,,,,,
40023,38.188936,-85.446269,jefferson,KY,1
,,,,,
40047,38.04141,-85.581303,bullitt,KY,1
,,,,,
40056,38.303255,-85.485175,oldham,KY,1
,,,,,
40216,38.186519,-85.833463,jefferson,KY,1
,,,,,
40219,38.138118,-85.69526,jefferson,KY,1
,,,,,
40241,38.304531,-85.581536,jefferson,KY,3
,,,,,
40243,38.242201,-85.535309,jefferson,KY,2
,,,,,
40245,38.258384,-85.475021,jefferson,KY,1
,,,,,
40299,38.176762,-85.521751,jefferson,KY,1
,,,,,
40356,37.863751,-84.565075,jessamine,KY,1
,,,,,
40504,38.038613,-84.539422,fayette,KY,2
,,,,,
40511,38.132747,-84.492226,fayette,KY,1
,,,,,
40514,37.982677,-84.560827,fayette,KY,3
,,,,,
40515,37.924774,-84.437207,fayette,KY,1
,,,,,
40962,37.151101,-83.779273,clay,KY,1
,,,,,
41031,38.356954,-84.323033,harrison,KY,1
,,,,,
41042,38.989548,-84.656711,boone,KY,2
,,,,,
41086,38.731246,-84.895823,gallatin,KY,1
,,,,,
41091,38.921583,-84.746057,boone,KY,1
,,,,,
41164,38.349219,-83.177987,carter,KY,1
,,,,,
41649,37.600698,-82.78595,floyd,KY,1
,,,,,
42001,37.031586,-88.713292,mccracken,KY,1
,,,,,
42045,37.076174,-88.264746,livingston,KY,1
,,,,,
42071,36.625349,-88.279562,calloway,KY,1
,,,,,
42104,36.887214,-86.453985,warren,KY,2
,,,,,
42220,36.862405,-87.177881,todd,KY,1
,,,,,
42240,36.876568,-87.471106,christian,KY,1
,,,,,
42420,37.785068,-87.527383,henderson,KY,2
,,,,,
42701,37.684807,-85.878391,hardin,KY,1
,,,,,
42740,37.602581,-86.007199,hardin,KY,1
,,,,,
42749,37.202266,-85.89552,hart,KY,1
,,,,,
43010,39.99914,-83.622204,clark,OH,1
,,,,,
43015,40.289886,-82.981095,delaware,OH,1
,,,,,
43016,39.969036,-83.011389,franklin,OH,1
,,,,,
43017,40.076041,-82.814456,franklin,OH,1
,,,,,
43081,40.10447,-82.896457,franklin,OH,2
,,,,,
43155,39.63769,-82.532092,fairfield,OH,1
,,,,,
43202,39.969036,-83.011389,franklin,OH,1
,,,,,
43206,39.969036,-83.011389,franklin,OH,1
,,,,,
43209,39.969036,-83.011389,franklin,OH,3
,,,,,
43212,39.969036,-83.011389,franklin,OH,1
,,,,,
43214,39.969036,-83.011389,franklin,OH,1
,,,,,
43220,39.969036,-83.011389,franklin,OH,1
,,,,,
43221,39.969036,-83.011389,franklin,OH,1
,,,,,
43229,40.095713,-82.962671,franklin,OH,2
,,,,,
43420,41.35622,-83.133981,sandusky,OH,1
,,,,,
43701,39.927415,-82.004058,muskingum,OH,2
,,,,,
43907,40.263163,-81.030687,harrison,OH,1
,,,,,
43953,40.352418,-80.678099,jefferson,OH,1
,,,,,
43964,40.477049,-80.670057,jefferson,OH,1
,,,,,
44024,41.572432,-81.157142,geauga,OH,2
,,,,,
44035,41.371396,-82.105112,lorain,OH,1
,,,,,
44044,41.2745,-82.046168,lorain,OH,1
,,,,,
44053,41.425292,-82.218185,lorain,OH,1
,,,,,
44077,41.707918,-81.19903,lake,OH,1
,,,,,
44092,41.597299,-81.458638,lake,OH,1
,,,,,
44094,41.637997,-81.377383,lake,OH,2
,,,,,
44106,41.504751,-81.602799,cuyahoga,OH,2
,,,,,
44118,41.500752,-81.551645,cuyahoga,OH,1
,,,,,
44120,41.473102,-81.579746,cuyahoga,OH,2
,,,,,
44121,41.527651,-81.532344,cuyahoga,OH,1
,,,,,
44122,41.473248,-81.505389,cuyahoga,OH,2
,,,,,
44131,41.395652,-81.64231,cuyahoga,OH,1
,,,,,
44132,41.606049,-81.510858,cuyahoga,OH,1
,,,,,
44133,41.314603,-81.745102,cuyahoga,OH,1
,,,,,
44136,41.313268,-81.831656,cuyahoga,OH,1
,,,,,
44140,41.490967,-81.921513,cuyahoga,OH,1
,,,,,
44212,41.206132,-81.82281,medina,OH,2
,,,,,
44266,41.163755,-81.172922,portage,OH,1
,,,,,
44303,41.104355,-81.535089,summit,OH,1
,,,,,
44306,41.041805,-81.479986,summit,OH,1
,,,,,
44432,40.743051,-80.745313,columbiana,OH,1
,,,,,
44720,40.895607,-81.433036,stark,OH,1
,,,,,
45014,39.387357,-84.499743,butler,OH,1
,,,,,
45044,39.418175,-84.424549,butler,OH,1
,,,,,
45140,39.223187,-84.245103,clermont,OH,3
,,,,,
45227,39.15926,-84.37284,hamilton,OH,1
,,,,,
45230,39.071262,-84.37584,hamilton,OH,1
,,,,,
45245,39.068815,-84.280171,clermont,OH,1
,,,,,
45249,39.269226,-84.330686,hamilton,OH,2
,,,,,
45342,39.641658,-84.27464,montgomery,OH,2
,,,,,
45417,39.75344,-84.245841,montgomery,OH,1
,,,,,
45420,39.717059,-84.134172,montgomery,OH,2
,,,,,
45429,39.684059,-84.163337,montgomery,OH,1
,,,,,
45601,39.337384,-82.991332,ross,OH,1
,,,,,
45693,38.82346,-83.504048,adams,OH,1
,,,,,
45801,40.772147,-84.0471,allen,OH,2
,,,,,
45833,40.794444,-84.311596,allen,OH,1
,,,,,
45840,41.015219,-83.664786,hancock,OH,2
,,,,,
46011,40.141033,-85.766164,madison,IN,1
,,,,,
46032,40.071102,-86.117215,hamilton,IN,1
,,,,,
46060,40.073328,-85.999521,hamilton,IN,1
,,,,,
46064,40.107304,-85.757678,madison,IN,1
,,,,,
46074,40.097028,-86.125716,hamilton,IN,1
,,,,,
46123,39.721434,-86.488881,hendricks,IN,2
,,,,,
46168,39.729892,-86.423412,hendricks,IN,1
,,,,,
46202,39.762392,-86.143736,marion,IN,2
,,,,,
46205,39.822641,-86.129886,marion,IN,3
,,,,,
46220,39.86904,-86.10895,marion,IN,2
,,,,,
46226,39.832577,-86.083634,marion,IN,2
,,,,,
46228,39.846191,-86.195081,marion,IN,1
,,,,,
46250,39.904838,-86.067263,marion,IN,2
,,,,,
46256,39.897708,-86.009447,marion,IN,2
,,,,,
46260,39.89384,-86.137988,marion,IN,1
,,,,,
46268,39.868173,-86.21231,marion,IN,1
,,,,,
46278,39.872591,-86.276791,marion,IN,1
,,,,,
46280,39.9416,-86.115707,hamilton,IN,1
,,,,,
46324,41.585185,-87.496665,lake,IN,1
,,,,,
46342,41.520515,-87.347486,lake,IN,1
,,,,,
46360,41.594185,-86.756985,la porte,IN,1
,,,,,
46366,41.25163,-86.735127,starke,IN,1
,,,,,
46514,41.71873,-85.937024,elkhart,IN,1
,,,,,
46517,41.617705,-85.965717,elkhart,IN,1
,,,,,
46544,41.61536,-86.287884,st joseph,IN,1
,,,,,
46567,41.296386,-85.844729,kosciusko,IN,1
,,,,,
46725,41.14956,-85.50042,whitley,IN,1
,,,,,
46798,41.009498,-85.086518,allen,IN,1
,,,,,
46815,41.141189,-85.072068,allen,IN,1
,,,,,
46835,41.156698,-85.057218,allen,IN,1
,,,,,
46845,41.095957,-85.084581,allen,IN,1
,,,,,
46952,40.519756,-85.636731,grant,IN,1
,,,,,
46953,40.499959,-85.626401,grant,IN,1
,,,,,
47203,39.241129,-85.827439,bartholomew,IN,1
,,,,,
47436,38.839482,-86.47943,lawrence,IN,1
,,,,,
47448,39.180583,-86.226228,brown,IN,1
,,,,,
47905,40.392686,-86.884071,tippecanoe,IN,1
,,,,,
47909,40.322769,-86.888066,tippecanoe,IN,2
,,,,,
47987,40.110318,-87.228444,fountain,IN,1
,,,,,
48045,42.587734,-82.821517,macomb,MI,1
,,,,,
48076,42.498117,-83.205798,oakland,MI,2
,,,,,
48084,42.554751,-83.17688,oakland,MI,1
,,,,,
48105,42.323077,-83.713891,washtenaw,MI,3
,,,,,
48109,42.276324,-83.711228,washtenaw,MI,1
,,,,,
48118,42.31375,-84.013999,washtenaw,MI,1
,,,,,
48124,42.299302,-83.242577,wayne,MI,1
,,,,,
48126,42.271811,-83.225877,wayne,MI,1
,,,,,
48128,42.31927,-83.251428,wayne,MI,1
,,,,,
48161,41.928024,-83.430682,monroe,MI,1
,,,,,
48167,42.41729,-83.432434,wayne,MI,1
,,,,,
48170,42.366737,-83.489679,wayne,MI,2
,,,,,
48185,42.31507,-83.373093,wayne,MI,1
,,,,,
48186,42.28902,-83.368582,wayne,MI,1
,,,,,
48310,42.564395,-83.068475,macomb,MI,1
,,,,,
48315,42.671025,-82.998811,macomb,MI,1
,,,,,
48323,42.568292,-83.380535,oakland,MI,1
,,,,,
48329,42.68258,-83.386338,oakland,MI,1
,,,,,
48371,42.772209,-83.339754,oakland,MI,1
,,,,,
48374,42.468959,-83.522221,oakland,MI,1
,,,,,
48428,42.937629,-83.154685,lapeer,MI,1
,,,,,
48430,42.83333,-83.763433,genesee,MI,1
,,,,,
48439,42.9227,-83.67376,genesee,MI,1
,,,,,
48446,43.121459,-83.319558,lapeer,MI,1
,,,,,
48451,42.825944,-83.811322,genesee,MI,1
,,,,,
48463,43.157936,-83.529863,genesee,MI,1
,,,,,
48611,43.639444,-84.059141,bay,MI,1
,,,,,
48650,43.839179,-84.038715,bay,MI,1
,,,,,
48742,44.65922,-83.454865,alcona,MI,1
,,,,,
48820,42.85479,-84.616108,clinton,MI,1
,,,,,
48858,43.636855,-84.807511,isabella,MI,1
,,,,,
48864,42.719534,-84.425136,ingham,MI,1
,,,,,
48895,42.680434,-84.271215,ingham,MI,1
,,,,,
48906,42.755284,-84.562979,ingham,MI,1
,,,,,
49014,42.303041,-85.13044,calhoun,MI,1
,,,,,
49024,42.197442,-85.619352,kalamazoo,MI,1
,,,,,
49080,42.479577,-85.633538,allegan,MI,2
,,,,,
49112,41.807011,-85.997234,cass,MI,1
,,,,,
49203,42.186861,-84.46471,jackson,MI,1
,,,,,
49221,41.889943,-84.065892,lenawee,MI,1
,,,,,
49303,43.272182,-85.854471,muskegon,MI,1
,,,,,
49315,42.835828,-85.664425,kent,MI,1
,,,,,
49423,42.812579,-86.037218,ottawa,MI,1
,,,,,
49431,43.998926,-86.349439,mason,MI,1
,,,,,
49445,43.295208,-86.278985,muskegon,MI,2
,,,,,
49456,43.076609,-86.19538,ottawa,MI,1
,,,,,
49459,43.721873,-86.141107,oceana,MI,1
,,,,,
49509,42.899917,-85.710077,kent,MI,1
,,,,,
49646,44.697144,-85.092905,kalkaska,MI,1
,,,,,
49677,43.952029,-85.414718,osceola,MI,1
,,,,,
49686,44.784919,-85.490673,grand traverse,MI,1
,,,,,
49783,46.357439,-84.587315,chippewa,MI,1
,,,,,
49911,46.423427,-89.992677,gogebic,MI,1
,,,,,
49958,46.7402,-88.7479,houghton,MI,1
,,,,,
50010,42.037879,-93.600254,story,IA,2
,,,,,
50014,42.045748,-93.647237,story,IA,1
,,,,,
50028,41.811839,-93.159506,jasper,IA,1
,,,,,
50320,41.544539,-93.582366,polk,IA,1
,,,,,
51561,41.011257,-95.808797,mills,IA,1
,,,,,
52002,42.532019,-90.7718,dubuque,IA,1
,,,,,
52310,42.139945,-91.158852,jones,IA,1
,,,,,
52405,41.987067,-91.753326,linn,IA,1
,,,,,
52556,41.030998,-91.957527,jefferson,IA,1
,,,,,
52601,40.898412,-91.164393,des moines,IA,2
,,,,,
52755,41.510935,-91.440616,johnson,IA,1
,,,,,
52761,41.462426,-91.053888,muscatine,IA,1
,,,,,
52778,41.559742,-90.959154,muscatine,IA,1
,,,,,
53005,43.062707,-88.105906,waukesha,WI,1
,,,,,
53012,43.321475,-88.004033,ozaukee,WI,1
,,,,,
53027,43.357616,-88.319032,washington,WI,1
,,,,,
53029,43.123679,-88.336087,waukesha,WI,1
,,,,,
53045,43.06081,-88.15589,waukesha,WI,1
,,,,,
53072,43.080185,-88.264875,waukesha,WI,1
,,,,,
53073,43.768454,-87.975773,sheboygan,WI,1
,,,,,
53076,43.2727,-88.206716,washington,WI,1
,,,,,
53083,43.775428,-87.860803,sheboygan,WI,1
,,,,,
53094,43.132599,-88.743595,jefferson,WI,1
,,,,,
53118,42.951536,-88.444097,waukesha,WI,1
,,,,,
53122,43.048211,-88.087888,waukesha,WI,1
,,,,,
53154,42.886266,-87.89198,milwaukee,WI,1
,,,,,
53179,42.517168,-88.138001,kenosha,WI,1
,,,,,
53211,43.082018,-87.889534,milwaukee,WI,1
,,,,,
53213,43.075461,-87.999511,milwaukee,WI,1
,,,,,
53217,43.13446,-87.933386,milwaukee,WI,1
,,,,,
53226,43.049312,-88.041387,milwaukee,WI,2
,,,,,
53402,42.755628,-87.821815,racine,WI,1
,,,,,
53510,42.685375,-90.263828,lafayette,WI,1
,,,,,
53536,42.766359,-89.250152,rock,WI,2
,,,,,
53555,43.342813,-89.557023,columbia,WI,1
,,,,,
53563,42.737804,-89.041277,rock,WI,1
,,,,,
53572,42.973438,-89.513903,dane,WI,1
,,,,,
53578,43.360759,-89.808407,sauk,WI,1
,,,,,
53590,43.195712,-89.209418,dane,WI,2
,,,,,
53597,43.183972,-89.322655,dane,WI,1
,,,,,
53703,43.053085,-89.352764,dane,WI,1
,,,,,
53704,43.104429,-89.322135,dane,WI,1
,,,,,
53705,43.073147,-89.45681,dane,WI,2
,,,,,
53714,43.118663,-89.312644,dane,WI,1
,,,,,
53717,43.015966,-89.656734,dane,WI,1
,,,,,
53726,43.06956,-89.423861,dane,WI,1
,,,,,
53949,43.812581,-89.372011,marquette,WI,1
,,,,,
53956,43.534002,-88.946714,dodge,WI,1
,,,,,
54016,44.971853,-92.481156,saint croix,WI,2
,,,,,
54022,44.802351,-92.595365,pierce,WI,1
,,,,,
54115,44.453629,-87.978279,brown,WI,1
,,,,,
54130,44.334465,-88.295776,outagamie,WI,1
,,,,,
54229,44.571416,-87.833306,brown,WI,1
,,,,,
54235,44.945314,-87.384142,door,WI,1
,,,,,
54247,44.189293,-87.781594,manitowoc,WI,1
,,,,,
54313,44.54964,-87.99597,brown,WI,1
,,,,,
54406,44.393087,-89.335313,portage,WI,1
,,,,,
54437,44.660403,-90.6756,clark,WI,1
,,,,,
54451,45.164705,-90.445798,taylor,WI,1
,,,,,
54459,45.451541,-90.287732,price,WI,1
,,,,,
54548,45.827583,-89.824294,oneida,WI,1
,,,,,
54552,45.846473,-90.360373,price,WI,1
,,,,,
54601,43.85456,-91.132072,la crosse,WI,1
,,,,,
54660,43.983826,-90.473336,monroe,WI,1
,,,,,
54701,44.75653,-91.473097,eau claire,WI,2
,,,,,
54829,45.42772,-91.899489,barron,WI,2
,,,,,
54922,44.432373,-88.559628,outagamie,WI,1
,,,,,
54923,43.915726,-89.027124,green lake,WI,1
,,,,,
54935,43.734724,-88.523176,fond du lac,WI,1
,,,,,
54956,44.170785,-88.658087,winnebago,WI,1
,,,,,
54982,44.075321,-89.271177,waushara,WI,2
,,,,,
55001,44.90717,-92.816193,washington,MN,1
,,,,,
55024,44.640515,-93.14196,dakota,MN,1
,,,,,
55033,44.737166,-93.032909,dakota,MN,1
,,,,,
55044,44.633421,-93.25812,dakota,MN,2
,,,,,
55057,44.376816,-93.241838,rice,MN,1
,,,,,
55082,45.061416,-92.84736,washington,MN,1
,,,,,
55104,44.955615,-93.16702,ramsey,MN,1
,,,,,
55106,44.957065,-93.041616,ramsey,MN,1
,,,,,
55107,44.932465,-93.087967,ramsey,MN,1
,,,,,
55109,45.013234,-93.029667,ramsey,MN,2
,,,,,
55110,45.079965,-93.022317,ramsey,MN,1
,,,,,
55112,45.078815,-93.187223,ramsey,MN,1
,,,,,
55113,45.013895,-93.157071,ramsey,MN,1
,,,,,
55118,44.856615,-93.113028,dakota,MN,1
,,,,,
55119,44.941415,-93.010714,ramsey,MN,1
,,,,,
55122,44.786018,-93.220205,dakota,MN,1
,,,,,
55123,44.805989,-93.140878,dakota,MN,2
,,,,,
55124,44.749701,-93.202881,dakota,MN,2
,,,,,
55125,44.919716,-92.943876,washington,MN,2
,,,,,
55126,45.073561,-93.138022,ramsey,MN,2
,,,,,
55127,45.080265,-93.08752,ramsey,MN,1
,,,,,
55305,44.952763,-93.43723,hennepin,MN,1
,,,,,
55309,45.367294,-93.686916,sherburne,MN,1
,,,,,
55311,45.124263,-93.499583,hennepin,MN,1
,,,,,
55331,44.912712,-93.623186,hennepin,MN,1
,,,,,
55343,44.913969,-93.44813,hennepin,MN,2
,,,,,
55345,44.916963,-93.481749,hennepin,MN,1
,,,,,
55347,44.841713,-93.459829,hennepin,MN,1
,,,,,
55353,45.36261,-94.309928,stearns,MN,1
,,,,,
55362,45.249636,-93.851533,wright,MN,1
,,,,,
55404,44.948614,-93.329926,hennepin,MN,1
,,,,,
55406,44.976015,-93.278975,hennepin,MN,2
,,,,,
55411,44.999514,-93.297393,hennepin,MN,1
,,,,,
55416,44.949714,-93.337326,hennepin,MN,2
,,,,,
55419,44.890914,-93.282724,hennepin,MN,1
,,,,,
55420,44.835164,-93.255222,hennepin,MN,2
,,,,,
55426,44.955014,-93.382928,hennepin,MN,1
,,,,,
55436,44.901163,-93.42267,hennepin,MN,1
,,,,,
55438,44.826613,-93.375027,hennepin,MN,1
,,,,,
55446,45.040013,-93.486482,hennepin,MN,2
,,,,,
55447,45.003335,-93.487482,hennepin,MN,1
,,,,,
55901,44.075285,-92.516916,olmsted,MN,1
,,,,,
55904,43.98622,-92.302649,olmsted,MN,1
,,,,,
55963,44.261029,-92.710905,goodhue,MN,1
,,,,,
55975,43.689711,-92.334603,fillmore,MN,1
,,,,,
56007,43.686288,-93.389838,freeborn,MN,1
,,,,,
56031,43.674049,-94.51078,martin,MN,2
,,,,,
56063,44.08391,-93.862052,blue earth,MN,1
,,,,,
56201,45.147104,-94.977723,kandiyohi,MN,1
,,,,,
56320,45.470708,-94.661654,stearns,MN,1
,,,,,
56342,45.973268,-93.536504,mille lacs,MN,1
,,,,,
56347,45.904136,-94.815114,todd,MN,2
,,,,,
56359,45.943108,-93.663152,mille lacs,MN,1
,,,,,
56401,46.350195,-94.099983,crow wing,MN,1
,,,,,
56461,47.108153,-94.921064,hubbard,MN,1
,,,,,
56467,46.94336,-94.844112,hubbard,MN,1
,,,,,
56701,48.076333,-96.149002,pennington,MN,1
,,,,,
57038,42.580112,-96.576256,union,SD,1
,,,,,
57069,42.854124,-96.973318,clay,SD,1
,,,,,
57106,43.529244,-96.780065,minnehaha,SD,1
,,,,,
57501,44.334073,-100.094195,hughes,SD,1
,,,,,
58501,46.981207,-100.502724,burleigh,ND,1
,,,,,
59034,45.52731,-107.6963,big horn,MT,1
,,,,,
59101,45.686966,-108.387392,yellowstone,MT,1
,,,,,
59102,45.790379,-108.588144,yellowstone,MT,1
,,,,,
59105,45.949726,-108.599037,yellowstone,MT,1
,,,,,
59241,48.342617,-106.854457,valley,MT,1
,,,,,
59405,47.277623,-111.290803,cascade,MT,1
,,,,,
59427,48.654298,-112.93062,glacier,MT,1
,,,,,
59433,47.842372,-111.795709,teton,MT,1
,,,,,
59457,47.250047,-109.381996,fergus,MT,1
,,,,,
59527,48.360516,-108.89392,blaine,MT,1
,,,,,
59701,45.997895,-112.598765,silver bow,MT,1
,,,,,
59715,45.809998,-111.168212,gallatin,MT,1
,,,,,
59718,45.66812,-111.240393,gallatin,MT,2
,,,,,
59801,46.853606,-113.909123,missoula,MT,1
,,,,,
59803,46.811758,-113.987645,missoula,MT,1
,,,,,
59808,46.977603,-114.061856,missoula,MT,1
,,,,,
59860,47.737279,-114.230256,lake,MT,2
,,,,,
59911,48.145854,-113.921121,flathead,MT,1
,,,,,
60008,42.074226,-88.026871,cook,IL,1
,,,,,
60016,42.048278,-87.890466,cook,IL,1
,,,,,
60022,42.102927,-87.815914,cook,IL,1
,,,,,
60025,42.082715,-87.819714,cook,IL,1
,,,,,
60026,41.811929,-87.68732,cook,IL,1
,,,,,
60035,42.187424,-87.811865,lake,IL,1
,,,,,
60048,42.28947,-87.957724,lake,IL,3
,,,,,
60060,42.252523,-88.027327,lake,IL,1
,,,,,
60061,42.231183,-87.962973,lake,IL,2
,,,,,
60062,42.120176,-87.838815,cook,IL,2
,,,,,
60068,42.037228,-87.843714,cook,IL,1
,,,,,
60073,42.279215,-88.050226,lake,IL,1
,,,,,
60084,42.249873,-88.073127,lake,IL,1
,,,,,
60093,42.112176,-87.940168,cook,IL,2
,,,,,
60120,41.990689,-88.429777,kane,IL,1
,,,,,
60152,42.255176,-88.607897,mchenry,IL,1
,,,,,
60171,41.923168,-87.83931,cook,IL,1
,,,,,
60172,41.839679,-88.088716,du page,IL,1
,,,,,
60181,41.875379,-87.97643,du page,IL,1
,,,,,
60188,41.839679,-88.088716,du page,IL,1
,,,,,
60194,42.028926,-88.116655,cook,IL,1
,,,,,
60201,42.049148,-87.702155,cook,IL,1
,,,,,
60202,42.044529,-87.687969,cook,IL,1
,,,,,
60302,41.811929,-87.68732,cook,IL,2
,,,,,
60305,41.811929,-87.68732,cook,IL,1
,,,,,
60402,41.811929,-87.68732,cook,IL,1
,,,,,
60430,41.811929,-87.68732,cook,IL,2
,,,,,
60431,41.471206,-87.93909,will,IL,1
,,,,,
60450,41.337433,-88.430183,grundy,IL,1
,,,,,
60516,41.75231,-88.021797,du page,IL,1
,,,,,
60532,41.79818,-88.037714,du page,IL,2
,,,,,
60540,41.759029,-88.152381,du page,IL,2
,,,,,
60561,41.743437,-87.98046,du page,IL,1
,,,,,
60564,41.681479,-88.201424,will,IL,1
,,,,,
60601,41.811929,-87.68732,cook,IL,1
,,,,,
60605,41.811929,-87.68732,cook,IL,2
,,,,,
60607,41.928881,-87.81381,cook,IL,2
,,,,,
60610,41.811929,-87.68732,cook,IL,1
,,,,,
60613,41.811929,-87.68732,cook,IL,1
,,,,,
60614,41.811929,-87.68732,cook,IL,3
,,,,,
60616,41.811929,-87.68732,cook,IL,1
,,,,,
60618,41.811929,-87.68732,cook,IL,1
,,,,,
60622,41.811929,-87.68732,cook,IL,1
,,,,,
60623,41.811929,-87.68732,cook,IL,2
,,,,,
60640,41.811929,-87.68732,cook,IL,2
,,,,,
60646,42.00663,-87.75901,cook,IL,1
,,,,,
60654,41.811929,-87.68732,cook,IL,1
,,,,,
60655,41.811929,-87.68732,cook,IL,2
,,,,,
60657,41.811929,-87.68732,cook,IL,3
,,,,,
60714,42.031179,-87.811163,cook,IL,1
,,,,,
60901,41.111151,-87.874618,kankakee,IL,1
,,,,,
61021,41.809229,-89.417156,lee,IL,1
,,,,,
61065,42.392537,-88.811894,boone,IL,1
,,,,,
61101,42.33342,-89.157198,winnebago,IL,1
,,,,,
61115,42.354546,-89.039675,winnebago,IL,1
,,,,,
61201,41.495083,-90.604899,rock island,IL,1
,,,,,
61364,41.164177,-88.85632,la salle,IL,1
,,,,,
61554,40.548928,-89.638839,tazewell,IL,1
,,,,,
61607,40.632085,-89.690349,peoria,IL,1
,,,,,
61611,40.563589,-89.543319,tazewell,IL,1
,,,,,
61614,40.768117,-89.602647,peoria,IL,1
,,,,,
61704,40.491715,-88.982373,mclean,IL,1
,,,,,
61761,40.530375,-88.7989,mclean,IL,4
,,,,,
61821,40.117337,-88.312996,champaign,IL,1
,,,,,
61822,40.131682,-88.28541,champaign,IL,1
,,,,,
61853,40.111848,-88.20431,champaign,IL,1
,,,,,
61951,39.588093,-88.633539,moultrie,IL,1
,,,,,
62040,38.802398,-90.1289,madison,IL,1
,,,,,
62220,38.46435,-89.973877,saint clair,IL,1
,,,,,
62234,38.733747,-89.908644,madison,IL,1
,,,,,
62262,38.93611,-89.313739,bond,IL,1
,,,,,
62305,39.96008,-91.302633,adams,IL,3
,,,,,
62450,38.709154,-88.085204,richland,IL,1
,,,,,
62454,39.004559,-87.751776,crawford,IL,1
,,,,,
62536,39.641606,-89.650041,sangamon,IL,1
,,,,,
62539,39.860619,-89.378449,sangamon,IL,1
,,,,,
62568,39.559092,-89.34063,christian,IL,1
,,,,,
62656,40.162779,-89.398361,logan,IL,1
,,,,,
62702,39.831699,-89.646507,sangamon,IL,1
,,,,,
62704,39.772463,-89.688924,sangamon,IL,1
,,,,,
62926,37.42204,-89.225572,union,IL,1
,,,,,
62939,37.534099,-88.971292,johnson,IL,1
,,,,,
63011,38.609102,-90.559763,saint louis,MO,3
,,,,,
63021,38.566653,-90.535646,saint louis,MO,6
,,,,,
63026,38.529903,-90.46737,saint louis,MO,1
,,,,,
63031,38.805499,-90.351314,saint louis,MO,1
,,,,,
63044,38.7514,-90.411542,saint louis,MO,1
,,,,,
63052,38.406865,-90.438051,jefferson,MO,1
,,,,,
63102,38.6336,-90.191221,saint louis city,MO,1
,,,,,
63103,38.629901,-90.216411,saint louis city,MO,1
,,,,,
63108,38.644801,-90.251962,saint louis city,MO,2
,,,,,
63110,38.625401,-90.268132,saint louis city,MO,1
,,,,,
63119,38.589302,-90.348116,saint louis,MO,1
,,,,,
63122,38.578052,-90.42563,saint louis,MO,1
,,,,,
63123,38.547552,-90.324115,saint louis,MO,1
,,,,,
63129,38.456553,-90.328212,saint louis,MO,1
,,,,,
63130,38.666851,-90.322514,saint louis,MO,2
,,,,,
63131,38.617102,-90.450368,saint louis,MO,1
,,,,,
63139,38.613501,-90.291814,saint louis city,MO,2
,,,,,
63141,38.656502,-90.454219,saint louis,MO,1
,,,,,
63143,38.611099,-90.322475,saint louis,MO,1
,,,,,
63146,38.703251,-90.461818,saint louis,MO,2
,,,,,
63301,38.754788,-90.613131,saint charles,MO,1
,,,,,
63303,38.759034,-90.595151,saint charles,MO,1
,,,,,
63348,38.777039,-90.916101,saint charles,MO,1
,,,,,
63357,38.651157,-91.151576,warren,MO,1
,,,,,
63385,38.79067,-90.852228,saint charles,MO,1
,,,,,
63445,40.41361,-91.659318,clark,MO,1
,,,,,
63456,39.624018,-91.762318,monroe,MO,1
,,,,,
64052,39.075554,-94.451179,jackson,MO,1
,,,,,
64064,38.987374,-94.333116,jackson,MO,1
,,,,,
64078,38.715254,-94.472568,cass,MO,1
,,,,,
64086,38.944006,-94.288086,jackson,MO,2
,,,,,
64109,39.066654,-94.575933,jackson,MO,1
,,,,,
64113,39.013805,-94.525243,jackson,MO,1
,,,,,
64119,39.211552,-94.527381,clay,MO,1
,,,,,
64133,39.032319,-94.469977,jackson,MO,1
,,,,,
64134,38.930506,-94.48358,jackson,MO,1
,,,,,
64150,39.177602,-94.632084,platte,MO,1
,,,,,
64154,39.278393,-94.641184,platte,MO,1
,,,,,
64468,40.277742,-94.860299,nodaway,MO,1
,,,,,
64701,38.615239,-94.321556,cass,MO,2
,,,,,
64870,37.185063,-94.330289,jasper,MO,1
,,,,,
65202,39.015904,-92.311885,boone,MO,1
,,,,,
65613,37.626464,-93.413616,polk,MO,1
,,,,,
65672,36.630652,-93.17315,taney,MO,1
,,,,,
65706,37.274421,-92.932494,webster,MO,1
,,,,,
65714,36.961768,-93.237749,christian,MO,1
,,,,,
65721,36.972577,-93.122301,christian,MO,2
,,,,,
65725,37.455661,-93.265019,polk,MO,1
,,,,,
65804,37.151377,-93.238034,greene,MO,2
,,,,,
65807,37.158811,-93.348705,greene,MO,1
,,,,,
66012,39.068153,-94.763938,wyandotte,KS,1
,,,,,
66043,39.233204,-94.883026,leavenworth,KS,1
,,,,,
66067,38.564337,-95.282668,franklin,KS,1
,,,,,
66202,39.024819,-94.682563,johnson,KS,1
,,,,,
66203,39.015629,-94.693187,johnson,KS,1
,,,,,
66204,38.974815,-94.683188,johnson,KS,1
,,,,,
66210,38.927256,-94.714336,johnson,KS,1
,,,,,
66213,38.898243,-94.704936,johnson,KS,1
,,,,,
66227,38.974684,-94.868066,johnson,KS,1
,,,,,
66503,39.245797,-96.633596,riley,KS,1
,,,,,
66604,39.045716,-95.758369,shawnee,KS,2
,,,,,
67203,37.706514,-97.395351,sedgwick,KS,1
,,,,,
67211,37.661,-97.312573,sedgwick,KS,1
,,,,,
67214,37.706143,-97.319593,sedgwick,KS,2
,,,,,
67301,37.180636,-95.756197,montgomery,KS,1
,,,,,
67401,38.823673,-97.642113,saline,KS,2
,,,,,
68127,41.207414,-96.061154,douglas,NE,1
,,,,,
68130,41.234004,-96.19506,douglas,NE,1
,,,,,
68131,41.265611,-95.963832,douglas,NE,1
,,,,,
68135,41.205998,-96.193498,douglas,NE,1
,,,,,
68144,41.233498,-96.118847,douglas,NE,1
,,,,,
68521,40.863301,-96.718994,lancaster,NE,1
,,,,,
68767,42.224218,-97.581551,pierce,NE,1
,,,,,
68845,40.75141,-99.129054,buffalo,NE,1
,,,,,
69162,41.161943,-103.066015,cheyenne,NE,1
,,,,,
70003,30.005653,-90.20733,jefferson,LA,2
,,,,,
70037,29.620092,-89.771638,plaquemines,LA,1
,,,,,
70058,29.875555,-90.069558,jefferson,LA,1
,,,,,
70068,30.065367,-90.527515,st john the baptist,LA,1
,,,,,
70125,29.952659,-90.102965,orleans,LA,1
,,,,,
70301,29.640426,-90.599039,lafourche,LA,3
,,,,,
70401,30.549037,-90.464466,tangipahoa,LA,1
,,,,,
70501,30.232955,-92.066574,lafayette,LA,1
,,,,,
70503,30.202892,-92.059521,lafayette,LA,3
,,,,,
70506,30.176093,-92.066315,lafayette,LA,1
,,,,,
70605,30.130378,-93.245056,calcasieu,LA,1
,,,,,
70653,30.682899,-93.441983,beauregard,LA,1
,,,,,
70663,30.300185,-93.435063,calcasieu,LA,1
,,,,,
70764,30.215233,-91.267904,iberville,LA,1
,,,,,
70810,30.355342,-91.072118,east baton rouge,LA,1
,,,,,
71027,32.172214,-93.790471,de soto,LA,2
,,,,,
71111,32.516708,-93.586698,bossier,LA,1
,,,,,
71457,31.70988,-93.109141,natchitoches,LA,1
,,,,,
71643,34.024648,-91.626178,lincoln,AR,1
,,,,,
71901,34.526841,-92.958697,garland,AR,1
,,,,,
72110,35.169237,-92.817379,conway,AR,1
,,,,,
72114,34.766561,-92.262899,pulaski,AR,1
,,,,,
72116,34.805945,-92.230488,pulaski,AR,1
,,,,,
72205,34.742911,-92.346652,pulaski,AR,1
,,,,,
72209,34.674055,-92.368649,pulaski,AR,1
,,,,,
72531,36.374704,-91.804608,fulton,AR,1
,,,,,
72560,35.820825,-92.038894,stone,AR,1
,,,,,
72801,35.29465,-93.072885,pope,AR,1
,,,,,
72903,35.354491,-94.356112,sebastian,AR,1
,,,,,
73012,34.48532,-97.852223,stephens,OK,1
,,,,,
73013,35.555542,-97.515011,oklahoma,OK,1
,,,,,
73034,35.631005,-97.463291,oklahoma,OK,1
,,,,,
73036,35.508128,-98.026708,canadian,OK,1
,,,,,
73072,35.218728,-97.363181,cleveland,OK,1
,,,,,
73112,35.511007,-97.578865,oklahoma,OK,1
,,,,,
73115,35.444931,-97.446013,oklahoma,OK,1
,,,,,
73130,35.459312,-97.298733,oklahoma,OK,1
,,,,,
73401,34.156627,-97.179214,carter,OK,1
,,,,,
73521,34.663039,-99.280343,jackson,OK,1
,,,,,
73762,35.732016,-97.97746,canadian,OK,1
,,,,,
74023,36.029294,-96.855949,payne,OK,1
,,,,,
74055,36.140225,-95.909669,tulsa,OK,2
,,,,,
74114,36.125893,-95.947421,tulsa,OK,2
,,,,,
74120,36.148593,-95.979824,tulsa,OK,1
,,,,,
74132,36.045543,-95.956267,tulsa,OK,1
,,,,,
74135,36.092236,-95.923175,tulsa,OK,1
,,,,,
74146,36.097046,-95.846066,tulsa,OK,1
,,,,,
74804,35.386758,-96.933148,pottawatomie,OK,1
,,,,,
74955,35.450662,-94.706796,sequoyah,OK,1
,,,,,
75002,33.208033,-96.646773,collin,TX,2
,,,,,
75006,32.767268,-96.777626,dallas,TX,1
,,,,,
75024,33.096727,-96.805334,collin,TX,1
,,,,,
75032,32.886,-96.409502,rockwall,TX,1
,,,,,
75035,33.157083,-96.772929,collin,TX,2
,,,,,
75042,32.829977,-96.690125,dallas,TX,1
,,,,,
75044,32.952929,-96.646873,dallas,TX,1
,,,,,
75067,33.047871,-97.050897,denton,TX,1
,,,,,
75070,33.230381,-96.627018,collin,TX,3
,,,,,
75071,NA,NA,collin,TX,1
,,,,,
75077,33.101069,-97.054032,denton,TX,2
,,,,,
75080,32.962811,-96.726826,dallas,TX,1
,,,,,
75088,32.928105,-96.555019,dallas,TX,3
,,,,,
75093,33.032674,-96.805055,collin,TX,1
,,,,,
75104,32.767268,-96.777626,dallas,TX,1
,,,,,
75169,32.695514,-95.974996,van zandt,TX,1
,,,,,
75211,32.736481,-96.835013,dallas,TX,1
,,,,,
75218,32.838526,-96.699475,dallas,TX,1
,,,,,
75219,32.767268,-96.777626,dallas,TX,1
,,,,,
75225,32.851127,-96.771829,dallas,TX,1
,,,,,
75228,32.832277,-96.682075,dallas,TX,1
,,,,,
75229,32.767268,-96.777626,dallas,TX,1
,,,,,
75230,32.886576,-96.769578,dallas,TX,1
,,,,,
75231,32.880025,-96.740103,dallas,TX,2
,,,,,
75232,32.652934,-96.820845,dallas,TX,1
,,,,,
75238,32.878923,-96.704725,dallas,TX,1
,,,,,
75244,32.767268,-96.777626,dallas,TX,1
,,,,,
75247,32.660247,-96.752254,dallas,TX,1
,,,,,
75454,33.283706,-96.53316,collin,TX,1
,,,,,
75559,33.506028,-94.589575,bowie,TX,1
,,,,,
75650,32.526928,-94.573183,harrison,TX,1
,,,,,
75703,32.230847,-95.340504,smith,TX,2
,,,,,
75758,32.257185,-95.539252,henderson,TX,1
,,,,,
75771,32.506185,-95.400598,smith,TX,1
,,,,,
75778,32.293384,-95.742334,henderson,TX,1
,,,,,
75965,NA,NA,nacogdoches,TX,1
,,,,,
76001,32.771419,-97.291484,tarrant,TX,1
,,,,,
76008,32.681918,-97.779522,parker,TX,1
,,,,,
76015,32.771419,-97.291484,tarrant,TX,1
,,,,,
76016,32.771419,-97.291484,tarrant,TX,2
,,,,,
76021,32.852546,-97.136289,tarrant,TX,1
,,,,,
76022,32.831019,-97.144339,tarrant,TX,1
,,,,,
76028,32.492683,-97.264359,johnson,TX,1
,,,,,
76063,32.771419,-97.291484,tarrant,TX,2
,,,,,
76084,32.455147,-97.141191,johnson,TX,1
,,,,,
76088,32.847803,-97.860618,parker,TX,1
,,,,,
76102,32.759437,-97.245612,tarrant,TX,2
,,,,,
76107,32.75428,-97.380446,tarrant,TX,1
,,,,,
76109,32.771419,-97.291484,tarrant,TX,1
,,,,,
76118,32.801252,-97.195241,tarrant,TX,1
,,,,,
76123,32.771419,-97.291484,tarrant,TX,1
,,,,,
76131,32.891654,-97.348081,tarrant,TX,1
,,,,,
76137,32.853199,-97.288144,tarrant,TX,2
,,,,,
76227,33.278066,-97.01748,denton,TX,1
,,,,,
76244,32.771419,-97.291484,tarrant,TX,1
,,,,,
76258,33.249576,-97.067567,denton,TX,1
,,,,,
76511,30.906295,-97.417295,bell,TX,1
,,,,,
76692,31.971321,-97.346289,hill,TX,1
,,,,,
76706,31.47441,-97.112326,mclennan,TX,1
,,,,,
76708,31.639896,-97.266208,mclennan,TX,1
,,,,,
77002,29.807651,-95.391447,harris,TX,1
,,,,,
77005,29.83399,-95.434241,harris,TX,1
,,,,,
77006,29.83399,-95.434241,harris,TX,1
,,,,,
77008,29.83399,-95.434241,harris,TX,1
,,,,,
77024,29.824899,-95.421967,harris,TX,2
,,,,,
77025,29.83399,-95.434241,harris,TX,2
,,,,,
77043,29.83399,-95.434241,harris,TX,1
,,,,,
77054,29.67543,-95.391466,harris,TX,1
,,,,,
77057,29.83399,-95.434241,harris,TX,1
,,,,,
77058,29.571604,-95.099828,harris,TX,1
,,,,,
77063,29.83399,-95.434241,harris,TX,1
,,,,,
77071,29.83399,-95.434241,harris,TX,1
,,,,,
77079,29.83399,-95.434241,harris,TX,1
,,,,,
77084,29.83399,-95.434241,harris,TX,2
,,,,,
77095,29.83399,-95.434241,harris,TX,2
,,,,,
77096,29.83399,-95.434241,harris,TX,1
,,,,,
77098,29.83399,-95.434241,harris,TX,1
,,,,,
77304,30.276638,-95.444823,montgomery,TX,1
,,,,,
77354,30.233328,-95.550188,montgomery,TX,1
,,,,,
77358,30.550542,-95.466582,walker,TX,1
,,,,,
77379,29.83399,-95.434241,harris,TX,1
,,,,,
77381,30.171573,-95.498497,montgomery,TX,1
,,,,,
77384,30.225997,-95.499935,montgomery,TX,1
,,,,,
77388,29.83399,-95.434241,harris,TX,2
,,,,,
77389,29.83399,-95.434241,harris,TX,2
,,,,,
77396,29.83399,-95.434241,harris,TX,1
,,,,,
77406,29.50401,-95.919107,fort bend,TX,1
,,,,,
77433,29.83399,-95.434241,harris,TX,1
,,,,,
77449,29.83399,-95.434241,harris,TX,1
,,,,,
77450,29.83399,-95.434241,harris,TX,1
,,,,,
77479,29.552921,-95.666778,fort bend,TX,1
,,,,,
77802,30.620983,-96.319377,brazos,TX,1
,,,,,
77845,30.579234,-96.293826,brazos,TX,1
,,,,,
78006,29.893137,-98.685719,kendall,TX,1
,,,,,
78133,29.801223,-98.220684,comal,TX,1
,,,,,
78231,29.437532,-98.461582,bexar,TX,1
,,,,,
78232,29.437532,-98.461582,bexar,TX,1
,,,,,
78233,29.292564,-98.408567,bexar,TX,1
,,,,,
78249,29.437532,-98.461582,bexar,TX,1
,,,,,
78251,29.464885,-98.671774,bexar,TX,1
,,,,,
78253,29.471977,-98.757439,bexar,TX,1
,,,,,
78254,29.437532,-98.461582,bexar,TX,1
,,,,,
78266,29.740162,-98.22843,comal,TX,1
,,,,,
78411,27.732089,-97.385169,nueces,TX,1
,,,,,
78414,27.667387,-97.373419,nueces,TX,1
,,,,,
78526,25.971728,-97.469871,cameron,TX,2
,,,,,
78552,26.174402,-97.683666,cameron,TX,1
,,,,,
78613,30.494032,-97.628724,williamson,TX,2
,,,,,
78619,30.09393,-98.000454,hays,TX,1
,,,,,
78620,30.165463,-98.044468,hays,TX,1
,,,,,
78628,30.692191,-97.756049,williamson,TX,1
,,,,,
78640,29.996599,-97.83354,hays,TX,1
,,,,,
78665,30.219829,-98.358613,blanco,TX,1
,,,,,
78704,30.240685,-97.768832,travis,TX,4
,,,,,
78705,30.293057,-97.736932,travis,TX,1
,,,,,
78729,30.456713,-97.770237,williamson,TX,1
,,,,,
78732,30.376821,-97.889237,travis,TX,1
,,,,,
78735,30.267607,-97.860767,travis,TX,1
,,,,,
78737,30.203952,-97.931042,travis,TX,1
,,,,,
78739,30.172937,-97.886794,travis,TX,1
,,,,,
78746,30.2971,-97.818113,travis,TX,2
,,,,,
78748,30.16696,-97.823854,travis,TX,1
,,,,,
78750,30.406729,-97.8155,travis,TX,1
,,,,,
78753,30.378554,-97.676445,travis,TX,1
,,,,,
78758,30.383637,-97.708233,travis,TX,1
,,,,,
78759,30.395586,-97.750611,travis,TX,1
,,,,,
79007,35.728104,-101.487464,hutchinson,TX,1
,,,,,
79065,35.515114,-100.836363,gray,TX,1
,,,,,
79364,33.553496,-101.809124,lubbock,TX,1
,,,,,
79416,33.587073,-101.957394,lubbock,TX,1
,,,,,
79605,32.370484,-99.814693,taylor,TX,1
,,,,,
79762,31.893906,-102.353839,ector,TX,1
,,,,,
79902,31.879779,-106.544218,el paso,TX,1
,,,,,
79912,31.897242,-106.564782,el paso,TX,1
,,,,,
79922,31.802756,-106.545393,el paso,TX,1
,,,,,
80005,39.857259,-105.12344,jefferson,CO,3
,,,,,
80007,39.863369,-105.172429,jefferson,CO,1
,,,,,
80014,39.660437,-104.82933,arapahoe,CO,1
,,,,,
80026,40.026334,-105.104899,boulder,CO,1
,,,,,
80027,39.980835,-105.269915,boulder,CO,1
,,,,,
80031,39.87529,-105.034487,adams,CO,1
,,,,,
80111,39.666811,-104.864703,arapahoe,CO,2
,,,,,
80120,39.597937,-105.010182,arapahoe,CO,2
,,,,,
80122,39.582222,-104.955576,arapahoe,CO,1
,,,,,
80126,39.54372,-104.969143,douglas,CO,1
,,,,,
80127,39.544307,-105.153074,jefferson,CO,1
,,,,,
80130,NA,NA,douglas,CO,1
,,,,,
80134,39.489472,-104.844731,douglas,CO,1
,,,,,
80205,39.760137,-104.967585,denver,CO,1
,,,,,
80207,39.713186,-104.903532,denver,CO,2
,,,,,
80209,39.707332,-104.964236,denver,CO,1
,,,,,
80210,39.701677,-104.964186,denver,CO,2
,,,,,
80211,39.765291,-105.018387,denver,CO,1
,,,,,
80215,39.743486,-105.100854,jefferson,CO,1
,,,,,
80218,39.720236,-104.968759,denver,CO,1
,,,,,
80219,39.695014,-105.034339,denver,CO,1
,,,,,
80220,39.732436,-104.910843,denver,CO,3
,,,,,
80222,39.709343,-104.924134,denver,CO,1
,,,,,
80224,39.702037,-104.911434,denver,CO,3
,,,,,
80228,39.688776,-105.156,jefferson,CO,2
,,,,,
80231,39.68493,-104.886785,denver,CO,1
,,,,,
80232,39.689487,-105.090779,jefferson,CO,1
,,,,,
80237,39.638537,-104.903984,denver,CO,1
,,,,,
80241,39.927421,-104.954833,adams,CO,1
,,,,,
80301,40.094787,-105.278083,boulder,CO,4
,,,,,
80302,40.063935,-105.390027,boulder,CO,2
,,,,,
80303,40.067772,-105.27484,boulder,CO,2
,,,,,
80304,40.114114,-105.369797,boulder,CO,2
,,,,,
80305,NA,NA,boulder,CO,1
,,,,,
80401,39.718539,-105.245659,jefferson,CO,3
,,,,,
80403,39.829821,-105.270395,jefferson,CO,1
,,,,,
80457,39.648137,-105.278194,jefferson,CO,1
,,,,,
80465,39.610289,-105.201967,jefferson,CO,1
,,,,,
80501,40.165634,-105.1633,boulder,CO,3
,,,,,
80504,40.129416,-104.970816,weld,CO,1
,,,,,
80524,40.59889,-105.252751,larimer,CO,1
,,,,,
80525,40.532277,-105.207073,larimer,CO,1
,,,,,
80538,40.551116,-105.183385,larimer,CO,4
,,,,,
80550,40.307972,-104.942467,weld,CO,2
,,,,,
80631,40.384991,-104.680631,weld,CO,1
,,,,,
80634,40.281195,-104.796453,weld,CO,3
,,,,,
80910,38.804094,-104.772059,el paso,CO,1
,,,,,
80918,38.90319,-104.807998,el paso,CO,2
,,,,,
81005,38.152191,-104.841328,pueblo,CO,2
,,,,,
81007,38.387004,-104.779156,pueblo,CO,1
,,,,,
81147,37.202251,-107.12619,archuleta,CO,1
,,,,,
81224,38.880713,-106.94868,gunnison,CO,1
,,,,,
81301,37.318364,-107.880367,la plata,CO,1
,,,,,
81501,39.069019,-108.583126,mesa,CO,1
,,,,,
81504,39.123554,-108.589414,mesa,CO,1
,,,,,
81505,39.14657,-108.626481,mesa,CO,1
,,,,,
81523,38.989416,-108.78097,mesa,CO,1
,,,,,
81623,39.476857,-107.38813,garfield,CO,1
,,,,,
81635,39.458498,-107.878874,garfield,CO,1
,,,,,
82001,41.25173,-104.56264,laramie,WY,1
,,,,,
82009,41.377698,-104.660353,laramie,WY,1
,,,,,
82070,41.43902,-105.801022,albany,WY,1
,,,,,
82072,41.582018,-105.708717,albany,WY,1
,,,,,
82401,44.008105,-108.141457,washakie,WY,1
,,,,,
83402,43.51824,-112.134734,bonneville,ID,1
,,,,,
83539,46.115992,-115.945949,idaho,ID,1
,,,,,
83629,43.969086,-116.11845,boise,ID,1
,,,,,
83632,44.560567,-116.462903,adams,ID,1
,,,,,
83642,43.579067,-116.421656,ada,ID,1
,,,,,
83687,43.602302,-116.552636,canyon,ID,1
,,,,,
83814,47.728441,-116.780869,kootenai,ID,1
,,,,,
83815,47.837453,-116.718533,kootenai,ID,2
,,,,,
84032,40.517678,-111.348882,wasatch,UT,1
,,,,,
84050,41.068883,-111.702746,morgan,UT,1
,,,,,
84057,40.311353,-111.72496,utah,UT,1
,,,,,
84060,40.71188,-111.448892,summit,UT,2
,,,,,
84095,40.554098,-111.953891,salt lake,UT,1
,,,,,
84102,40.759246,-111.86259,salt lake,UT,3
,,,,,
84103,40.785847,-111.869485,salt lake,UT,2
,,,,,
84107,40.656796,-111.890414,salt lake,UT,1
,,,,,
84111,40.755596,-111.883718,salt lake,UT,2
,,,,,
84124,40.653246,-111.820566,salt lake,UT,3
,,,,,
84128,40.697645,-112.037673,salt lake,UT,1
,,,,,
84195,NA,NA,salt lake,UT,1
,,,,,
84301,41.609266,-112.124107,box elder,UT,1
,,,,,
84319,41.717589,-111.879653,cache,UT,1
,,,,,
84321,41.76695,-111.885084,cache,UT,1
,,,,,
84339,41.637826,-111.917588,cache,UT,1
,,,,,
84403,41.178343,-111.938216,weber,UT,1
,,,,,
84767,37.186249,-113.013922,washington,UT,1
,,,,,
84770,37.306845,-113.355421,washington,UT,1
,,,,,
84790,37.083098,-113.558068,washington,UT,2
,,,,,
85006,33.276539,-112.18717,maricopa,AZ,2
,,,,,
85013,33.276539,-112.18717,maricopa,AZ,2
,,,,,
85014,33.276539,-112.18717,maricopa,AZ,2
,,,,,
85015,33.478293,-112.115805,maricopa,AZ,1
,,,,,
85016,33.276539,-112.18717,maricopa,AZ,3
,,,,,
85018,33.482033,-111.735322,maricopa,AZ,1
,,,,,
85020,33.276539,-112.18717,maricopa,AZ,1
,,,,,
85021,33.276539,-112.18717,maricopa,AZ,1
,,,,,
85022,33.276539,-112.18717,maricopa,AZ,2
,,,,,
85023,33.276539,-112.18717,maricopa,AZ,2
,,,,,
85024,33.276539,-112.18717,maricopa,AZ,1
,,,,,
85028,33.382744,-111.66139,maricopa,AZ,3
,,,,,
85032,33.276539,-112.18717,maricopa,AZ,1
,,,,,
85041,33.379728,-112.112254,maricopa,AZ,1
,,,,,
85042,NA,NA,maricopa,AZ,1
,,,,,
85044,33.338743,-111.97277,maricopa,AZ,2
,,,,,
85048,33.316039,-112.066901,maricopa,AZ,1
,,,,,
85050,33.276539,-112.18717,maricopa,AZ,2
,,,,,
85053,33.276539,-112.18717,maricopa,AZ,1
,,,,,
85054,33.276539,-112.18717,maricopa,AZ,1
,,,,,
85085,33.276539,-112.18717,maricopa,AZ,1
,,,,,
85202,33.393484,-111.804513,maricopa,AZ,1
,,,,,
85204,33.397131,-111.787678,maricopa,AZ,3
,,,,,
85205,33.443345,-111.732134,maricopa,AZ,1
,,,,,
85206,33.390148,-111.717968,maricopa,AZ,2
,,,,,
85208,33.395932,-111.663655,maricopa,AZ,2
,,,,,
85210,33.387296,-111.840095,maricopa,AZ,1
,,,,,
85213,33.448407,-111.830905,maricopa,AZ,1
,,,,,
85224,33.298461,-111.85062,maricopa,AZ,1
,,,,,
85225,33.325991,-111.824367,maricopa,AZ,3
,,,,,
85248,33.250947,-111.859308,maricopa,AZ,2
,,,,,
85249,33.247861,-111.770161,maricopa,AZ,3
,,,,,
85252,33.499529,-111.868432,maricopa,AZ,1
,,,,,
85253,33.360896,-111.963149,maricopa,AZ,2
,,,,,
85254,33.483533,-111.83018,maricopa,AZ,1
,,,,,
85258,33.553346,-111.879806,maricopa,AZ,3
,,,,,
85259,33.276539,-112.18717,maricopa,AZ,1
,,,,,
85262,33.407445,-111.915298,maricopa,AZ,1
,,,,,
85263,33.276539,-112.18717,maricopa,AZ,1
,,,,,
85266,33.276539,-112.18717,maricopa,AZ,1
,,,,,
85268,33.276539,-112.18717,maricopa,AZ,1
,,,,,
85282,33.396736,-111.929253,maricopa,AZ,1
,,,,,
85283,33.373723,-111.876915,maricopa,AZ,5
,,,,,
85284,33.343546,-111.914127,maricopa,AZ,1
,,,,,
85296,33.314508,-111.748791,maricopa,AZ,1
,,,,,
85302,33.276539,-112.18717,maricopa,AZ,1
,,,,,
85304,33.276539,-112.18717,maricopa,AZ,1
,,,,,
85305,33.276539,-112.18717,maricopa,AZ,1
,,,,,
85345,33.276539,-112.18717,maricopa,AZ,1
,,,,,
85351,33.276539,-112.18717,maricopa,AZ,2
,,,,,
85356,32.693461,-114.156058,yuma,AZ,2
,,,,,
85358,33.276539,-112.18717,maricopa,AZ,1
,,,,,
85373,33.276539,-112.18717,maricopa,AZ,1
,,,,,
85374,33.276539,-112.18717,maricopa,AZ,3
,,,,,
85375,33.276539,-112.18717,maricopa,AZ,3
,,,,,
85379,33.276539,-112.18717,maricopa,AZ,1
,,,,,
85381,33.276539,-112.18717,maricopa,AZ,1
,,,,,
85382,33.276539,-112.18717,maricopa,AZ,2
,,,,,
85383,NA,NA,maricopa,AZ,1
,,,,,
85387,33.276539,-112.18717,maricopa,AZ,2
,,,,,
85541,33.864471,-111.075088,gila,AZ,3
,,,,,
85614,31.838223,-110.955483,pima,AZ,2
,,,,,
85622,31.853334,-110.932803,pima,AZ,1
,,,,,
85701,32.217975,-110.970869,pima,AZ,1
,,,,,
85705,32.294945,-110.900395,pima,AZ,3
,,,,,
85706,32.093314,-110.879684,pima,AZ,1
,,,,,
85711,32.214075,-110.883744,pima,AZ,1
,,,,,
85712,32.253714,-110.883744,pima,AZ,1
,,,,,
85715,32.251875,-110.819977,pima,AZ,1
,,,,,
85718,32.311724,-110.91898,pima,AZ,3
,,,,,
85742,32.407562,-111.065029,pima,AZ,1
,,,,,
85743,32.333438,-111.065869,pima,AZ,2
,,,,,
85747,32.098362,-110.727183,pima,AZ,1
,,,,,
85749,32.263975,-110.74667,pima,AZ,2
,,,,,
85750,32.297374,-110.840422,pima,AZ,2
,,,,,
85751,32.161972,-110.714678,pima,AZ,1
,,,,,
86001,35.932116,-111.597853,coconino,AZ,4
,,,,,
86004,35.610905,-111.324353,coconino,AZ,1
,,,,,
86305,34.683235,-112.208914,yavapai,AZ,2
,,,,,
86323,34.755208,-112.171623,yavapai,AZ,1
,,,,,
86336,34.756885,-111.279927,coconino,AZ,2
,,,,,
87002,34.651051,-106.695247,valencia,NM,1
,,,,,
87008,35.124363,-106.375103,bernalillo,NM,1
,,,,,
87047,35.152995,-106.311441,bernalillo,NM,1
,,,,,
87059,35.035534,-106.275342,bernalillo,NM,2
,,,,,
87106,35.04319,-106.489592,bernalillo,NM,2
,,,,,
87109,35.127194,-106.58678,bernalillo,NM,1
,,,,,
87111,35.071965,-106.454173,bernalillo,NM,1
,,,,,
87112,35.085042,-106.444113,bernalillo,NM,1
,,,,,
87113,35.145397,-106.50573,bernalillo,NM,1
,,,,,
87120,35.119742,-106.704983,bernalillo,NM,2
,,,,,
87121,35.059663,-106.805535,bernalillo,NM,1
,,,,,
87418,36.927197,-108.188227,san juan,NM,1
,,,,,
87501,35.697473,-105.982146,santa fe,NM,2
,,,,,
87505,35.656638,-105.946155,santa fe,NM,1
,,,,,
87508,NA,NA,santa fe,NM,2
,,,,,
87510,36.219921,-106.262778,rio arriba,NM,1
,,,,,
87544,35.849514,-106.288482,los alamos,NM,1
,,,,,
88101,34.497241,-103.294978,curry,NM,2
,,,,,
88254,32.636247,-104.365038,eddy,NM,1
,,,,,
88355,33.330502,-105.693322,lincoln,NM,1
,,,,,
89014,36.283135,-114.804393,clark,NV,1
,,,,,
89049,38.262575,-116.624808,nye,NV,1
,,,,,
89052,35.987798,-115.116652,clark,NV,3
,,,,,
89074,NA,NA,clark,NV,1
,,,,,
89084,NA,NA,clark,NV,1
,,,,,
89106,36.181169,-115.167635,clark,NV,2
,,,,,
89113,36.057605,-115.289522,clark,NV,1
,,,,,
89117,36.130992,-115.217932,clark,NV,1
,,,,,
89123,35.988844,-115.157513,clark,NV,2
,,,,,
89128,36.119038,-115.24018,clark,NV,1
,,,,,
89130,36.246153,-115.222064,clark,NV,1
,,,,,
89131,36.343521,-115.253899,clark,NV,1
,,,,,
89134,36.126524,-115.342404,clark,NV,1
,,,,,
89135,36.137829,-115.326081,clark,NV,1
,,,,,
89144,36.178088,-115.31835,clark,NV,2
,,,,,
89403,39.103007,-119.482264,lyon,NV,1
,,,,,
89431,40.039169,-119.640601,washoe,NV,1
,,,,,
89434,39.591728,-119.716747,washoe,NV,1
,,,,,
89436,39.651879,-119.659053,washoe,NV,2
,,,,,
89506,39.695488,-119.811146,washoe,NV,1
,,,,,
89509,39.413458,-119.857022,washoe,NV,4
,,,,,
89510,39.906211,-119.604367,washoe,NV,1
,,,,,
89523,39.549297,-119.639031,washoe,NV,1
,,,,,
89701,39.154485,-119.73074,carson city,NV,1
,,,,,
89703,39.164225,-119.800294,carson city,NV,1
,,,,,
90016,33.786594,-118.298662,los angeles,CA,1
,,,,,
90026,33.786594,-118.298662,los angeles,CA,2
,,,,,
90028,34.014613,-118.225606,los angeles,CA,1
,,,,,
90029,33.786594,-118.298662,los angeles,CA,1
,,,,,
90034,33.786594,-118.298662,los angeles,CA,1
,,,,,
90036,33.786594,-118.298662,los angeles,CA,1
,,,,,
90039,33.786594,-118.298662,los angeles,CA,1
,,,,,
90046,33.786594,-118.298662,los angeles,CA,1
,,,,,
90049,33.786594,-118.298662,los angeles,CA,1
,,,,,
90066,33.786594,-118.298662,los angeles,CA,1
,,,,,
90069,33.786594,-118.298662,los angeles,CA,2
,,,,,
90210,33.786594,-118.298662,los angeles,CA,2
,,,,,
90249,33.858866,-118.299106,los angeles,CA,1
,,,,,
90254,33.786594,-118.298662,los angeles,CA,2
,,,,,
90265,33.786594,-118.298662,los angeles,CA,2
,,,,,
90266,33.786594,-118.298662,los angeles,CA,2
,,,,,
90272,33.786594,-118.298662,los angeles,CA,1
,,,,,
90275,33.786594,-118.298662,los angeles,CA,1
,,,,,
90277,33.786594,-118.298662,los angeles,CA,1
,,,,,
90278,33.987613,-118.179754,los angeles,CA,2
,,,,,
90291,33.786594,-118.298662,los angeles,CA,3
,,,,,
90292,33.786594,-118.298662,los angeles,CA,1
,,,,,
90403,33.786594,-118.298662,los angeles,CA,3
,,,,,
90404,33.786594,-118.298662,los angeles,CA,2
,,,,,
90405,33.786594,-118.298662,los angeles,CA,1
,,,,,
90406,33.786594,-118.298662,los angeles,CA,1
,,,,,
90605,33.944312,-118.017424,los angeles,CA,1
,,,,,
90630,33.640302,-117.769442,orange,CA,1
,,,,,
90631,33.640302,-117.769442,orange,CA,2
,,,,,
90720,33.640302,-117.769442,orange,CA,1
,,,,,
90745,33.813317,-118.261154,los angeles,CA,1
,,,,,
90802,33.756024,-118.201101,los angeles,CA,1
,,,,,
90805,33.838815,-118.1576,los angeles,CA,1
,,,,,
90807,33.831466,-118.181102,los angeles,CA,1
,,,,,
90808,33.800266,-118.106132,los angeles,CA,1
,,,,,
90813,33.780017,-118.183701,los angeles,CA,1
,,,,,
91101,33.786594,-118.298662,los angeles,CA,1
,,,,,
91203,33.786594,-118.298662,los angeles,CA,1
,,,,,
91208,33.786594,-118.298662,los angeles,CA,1
,,,,,
91306,33.786594,-118.298662,los angeles,CA,1
,,,,,
91311,33.786594,-118.298662,los angeles,CA,1
,,,,,
91321,33.786594,-118.298662,los angeles,CA,1
,,,,,
91325,33.786594,-118.298662,los angeles,CA,1
,,,,,
91335,33.786594,-118.298662,los angeles,CA,1
,,,,,
91350,33.786594,-118.298662,los angeles,CA,1
,,,,,
91351,33.786594,-118.298662,los angeles,CA,1
,,,,,
91355,33.786594,-118.298662,los angeles,CA,1
,,,,,
91362,34.194756,-118.823177,ventura,CA,2
,,,,,
91387,NA,NA,los angeles,CA,1
,,,,,
91390,NA,NA,los angeles,CA,2
,,,,,
91405,33.786594,-118.298662,los angeles,CA,1
,,,,,
91501,33.786594,-118.298662,los angeles,CA,1
,,,,,
91604,33.786594,-118.298662,los angeles,CA,1
,,,,,
91607,33.786594,-118.298662,los angeles,CA,2
,,,,,
91702,33.786594,-118.298662,los angeles,CA,1
,,,,,
91709,34.839964,-115.967051,san bernardino,CA,1
,,,,,
91711,33.786594,-118.298662,los angeles,CA,1
,,,,,
91754,33.786594,-118.298662,los angeles,CA,1
,,,,,
91763,34.839964,-115.967051,san bernardino,CA,1
,,,,,
91910,32.636922,-117.050072,san diego,CA,2
,,,,,
91942,32.781084,-117.018638,san diego,CA,1
,,,,,
91978,32.733452,-116.957898,san diego,CA,1
,,,,,
92008,33.016928,-116.846046,san diego,CA,1
,,,,,
92014,32.974074,-117.224167,san diego,CA,1
,,,,,
92018,33.016928,-116.846046,san diego,CA,1
,,,,,
92024,33.054154,-117.250253,san diego,CA,3
,,,,,
92028,33.016928,-116.846046,san diego,CA,2
,,,,,
92036,33.016928,-116.846046,san diego,CA,1
,,,,,
92037,32.898511,-117.225744,san diego,CA,2
,,,,,
92057,33.016928,-116.846046,san diego,CA,1
,,,,,
92064,32.994097,-117.030299,san diego,CA,1
,,,,,
92067,33.005026,-117.21569,san diego,CA,1
,,,,,
92071,32.843956,-116.994511,san diego,CA,2
,,,,,
92075,33.007075,-117.256769,san diego,CA,2
,,,,,
92078,33.016928,-116.846046,san diego,CA,1
,,,,,
92082,33.016928,-116.846046,san diego,CA,1
,,,,,
92091,32.962307,-117.046183,san diego,CA,1
,,,,,
92101,32.7211,-117.174366,san diego,CA,1
,,,,,
92103,32.746085,-117.170517,san diego,CA,2
,,,,,
92104,32.73875,-117.128908,san diego,CA,3
,,,,,
92107,32.735,-117.202669,san diego,CA,1
,,,,,
92109,32.794748,-117.239392,san diego,CA,2
,,,,,
92111,32.803717,-117.16643,san diego,CA,1
,,,,,
92116,32.7654,-117.127894,san diego,CA,2
,,,,,
92117,32.818398,-117.197168,san diego,CA,1
,,,,,
92118,32.656176,-117.160815,san diego,CA,1
,,,,,
92120,32.794947,-117.079863,san diego,CA,1
,,,,,
92122,32.856847,-117.208027,san diego,CA,5
,,,,,
92124,32.818733,-117.082387,san diego,CA,1
,,,,,
92128,32.995484,-117.07483,san diego,CA,1
,,,,,
92130,32.952467,-117.161871,san diego,CA,1
,,,,,
92131,32.874916,-117.088322,san diego,CA,1
,,,,,
92260,33.680623,-116.402695,riverside,CA,4
,,,,,
92262,33.842567,-116.527996,riverside,CA,1
,,,,,
92264,33.797145,-116.511883,riverside,CA,1
,,,,,
92270,33.703598,-116.431961,riverside,CA,1
,,,,,
92354,34.839964,-115.967051,san bernardino,CA,2
,,,,,
92372,34.237294,-116.855056,san bernardino,CA,1
,,,,,
92373,34.2409,-116.889474,san bernardino,CA,1
,,,,,
92405,34.134794,-116.228393,san bernardino,CA,1
,,,,,
92501,33.752886,-116.055617,riverside,CA,1
,,,,,
92503,33.752886,-116.055617,riverside,CA,1
,,,,,
92504,33.752886,-116.055617,riverside,CA,1
,,,,,
92506,33.752886,-116.055617,riverside,CA,3
,,,,,
92507,33.752886,-116.055617,riverside,CA,1
,,,,,
92513,33.752886,-116.055617,riverside,CA,1
,,,,,
92549,33.741769,-116.721444,riverside,CA,1
,,,,,
92562,33.44204,-116.861027,riverside,CA,1
,,,,,
92563,33.752886,-116.055617,riverside,CA,1
,,,,,
92620,33.691619,-117.765186,orange,CA,1
,,,,,
92625,33.599956,-117.865325,orange,CA,1
,,,,,
92646,33.640302,-117.769442,orange,CA,1
,,,,,
92650,33.640302,-117.769442,orange,CA,1
,,,,,
92651,33.520941,-117.741315,orange,CA,1
,,,,,
92656,33.603459,-117.751341,orange,CA,1
,,,,,
92660,33.637771,-117.875189,orange,CA,4
,,,,,
92661,33.555291,-117.833298,orange,CA,1
,,,,,
92677,33.532817,-117.710262,orange,CA,2
,,,,,
92688,33.601944,-117.603684,orange,CA,1
,,,,,
92691,33.605527,-117.667923,orange,CA,1
,,,,,
92692,33.575026,-117.659899,orange,CA,1
,,,,,
92704,33.640302,-117.769442,orange,CA,2
,,,,,
92804,33.640302,-117.769442,orange,CA,1
,,,,,
92807,33.640302,-117.769442,orange,CA,1
,,,,,
92833,33.640302,-117.769442,orange,CA,1
,,,,,
92866,33.640302,-117.769442,orange,CA,1
,,,,,
92869,33.640302,-117.769442,orange,CA,1
,,,,,
92879,33.752886,-116.055617,riverside,CA,1
,,,,,
92886,33.674044,-117.588233,orange,CA,2
,,,,,
93001,34.330829,-119.358352,ventura,CA,2
,,,,,
93010,34.307783,-119.084253,ventura,CA,1
,,,,,
93023,34.478806,-119.25876,ventura,CA,1
,,,,,
93035,34.221157,-119.202365,ventura,CA,2
,,,,,
93063,34.292301,-118.82033,ventura,CA,2
,,,,,
93101,34.421897,-119.707135,santa barbara,CA,1
,,,,,
93103,34.430908,-119.626863,santa barbara,CA,1
,,,,,
93110,34.539027,-119.906198,santa barbara,CA,1
,,,,,
93117,34.503802,-120.038806,santa barbara,CA,1
,,,,,
93245,36.268194,-119.817274,kings,CA,2
,,,,,
93268,35.703306,-118.413077,kern,CA,1
,,,,,
93277,36.13188,-119.355559,tulare,CA,5
,,,,,
93305,35.385489,-118.985984,kern,CA,1
,,,,,
93306,35.413048,-118.867478,kern,CA,1
,,,,,
93313,35.27581,-119.013543,kern,CA,1
,,,,,
93401,35.265573,-120.62122,san luis obispo,CA,1
,,,,,
93423,35.428241,-120.769493,san luis obispo,CA,1
,,,,,
93426,35.907585,-120.937371,monterey,CA,1
,,,,,
93430,35.473343,-120.908608,san luis obispo,CA,1
,,,,,
93442,35.402295,-120.793742,san luis obispo,CA,1
,,,,,
93444,35.048397,-120.494812,san luis obispo,CA,2
,,,,,
93446,35.640598,-120.700313,san luis obispo,CA,1
,,,,,
93449,35.391719,-120.549178,san luis obispo,CA,1
,,,,,
93528,35.370839,-117.642748,kern,CA,1
,,,,,
93611,36.832583,-119.592146,fresno,CA,5
,,,,,
93612,36.878242,-119.585303,fresno,CA,1
,,,,,
93631,36.5249,-119.602863,fresno,CA,1
,,,,,
93635,37.103768,-120.847479,merced,CA,1
,,,,,
93703,36.768449,-119.761076,fresno,CA,1
,,,,,
93704,36.92709,-119.670552,fresno,CA,3
,,,,,
93705,36.795503,-119.847234,fresno,CA,3
,,,,,
93710,36.896749,-119.750294,fresno,CA,3
,,,,,
93711,36.830336,-119.82824,fresno,CA,4
,,,,,
93720,36.850729,-119.802227,fresno,CA,5
,,,,,
93722,36.793291,-119.931132,fresno,CA,3
,,,,,
93725,36.620698,-119.730824,fresno,CA,1
,,,,,
93727,36.763149,-119.673272,fresno,CA,2
,,,,,
93728,36.756348,-119.817429,fresno,CA,2
,,,,,
93901,36.441768,-121.416603,monterey,CA,3
,,,,,
93906,36.620989,-121.487916,monterey,CA,3
,,,,,
93907,36.756306,-121.67031,monterey,CA,2
,,,,,
93908,36.641676,-121.63741,monterey,CA,5
,,,,,
93921,36.549729,-121.922515,monterey,CA,1
,,,,,
93923,36.615248,-121.79501,monterey,CA,3
,,,,,
93924,36.446043,-121.666999,monterey,CA,2
,,,,,
93926,36.502102,-121.408607,monterey,CA,1
,,,,,
93933,36.643259,-121.812711,monterey,CA,2
,,,,,
93940,36.521811,-121.688623,monterey,CA,11
,,,,,
93950,36.408303,-121.544387,monterey,CA,10
,,,,,
93953,36.5831,-121.936365,monterey,CA,1
,,,,,
93955,36.429013,-121.497712,monterey,CA,4
,,,,,
94002,37.516644,-122.29339,san mateo,CA,26
,,,,,
94003,37.381144,-122.334825,san mateo,CA,1
,,,,,
94005,37.689182,-122.404332,san mateo,CA,5
,,,,,
94010,37.567086,-122.367573,san mateo,CA,45
,,,,,
94014,37.687509,-122.438783,san mateo,CA,17
,,,,,
94015,37.676864,-122.475234,san mateo,CA,15
,,,,,
94018,37.510085,-122.473404,san mateo,CA,3
,,,,,
94019,37.389057,-122.415566,san mateo,CA,19
,,,,,
94020,37.272556,-122.249528,san mateo,CA,5
,,,,,
94022,37.238842,-121.885066,santa clara,CA,20
,,,,,
94024,37.189396,-121.705327,santa clara,CA,22
,,,,,
94025,37.439616,-122.186373,san mateo,CA,53
,,,,,
94027,37.450627,-122.199439,san mateo,CA,9
,,,,,
94028,37.370194,-122.218176,san mateo,CA,8
,,,,,
94030,37.598385,-122.400083,san mateo,CA,7
,,,,,
94037,37.542789,-122.505152,san mateo,CA,7
,,,,,
94038,37.52019,-122.499618,san mateo,CA,10
,,,,,
94039,37.189396,-121.705327,santa clara,CA,1
,,,,,
94040,37.189396,-121.705327,santa clara,CA,22
,,,,,
94041,37.189396,-121.705327,santa clara,CA,8
,,,,,
94043,37.189396,-121.705327,santa clara,CA,16
,,,,,
94044,37.616774,-122.480015,san mateo,CA,44
,,,,,
94060,37.211194,-122.343782,san mateo,CA,1
,,,,,
94061,37.462158,-122.235639,san mateo,CA,32
,,,,,
94062,37.424539,-122.295997,san mateo,CA,36
,,,,,
94063,37.490387,-122.212846,san mateo,CA,8
,,,,,
94065,37.53256,-122.247806,san mateo,CA,8
,,,,,
94066,37.623159,-122.436034,san mateo,CA,14
,,,,,
94070,37.498586,-122.29815,san mateo,CA,37
,,,,,
94074,37.328292,-122.360233,san mateo,CA,1
,,,,,
94080,37.657443,-122.423483,san mateo,CA,19
,,,,,
94085,NA,NA,santa clara,CA,4
,,,,,
94086,37.189396,-121.705327,santa clara,CA,14
,,,,,
94087,37.189396,-121.705327,santa clara,CA,33
,,,,,
94089,37.189396,-121.705327,santa clara,CA,8
,,,,,
94102,37.779278,-122.416582,san francisco,CA,24
,,,,,
94103,37.775678,-122.412131,san francisco,CA,23
,,,,,
94104,37.790728,-122.401732,san francisco,CA,3
,,,,,
94105,37.789595,-122.395631,san francisco,CA,6
,,,,,
94107,37.769029,-122.393681,san francisco,CA,35
,,,,,
94108,37.791028,-122.408782,san francisco,CA,17
,,,,,
94109,37.795219,-122.420782,san francisco,CA,82
,,,,,
94110,37.748932,-122.416281,san francisco,CA,92
,,,,,
94111,37.773579,-122.405331,san francisco,CA,19
,,,,,
94112,37.721981,-122.439382,san francisco,CA,44
,,,,,
94114,37.758279,-122.439332,san francisco,CA,102
,,,,,
94115,37.786028,-122.437032,san francisco,CA,58
,,,,,
94116,37.743857,-122.483232,san francisco,CA,54
,,,,,
94117,37.769079,-122.443882,san francisco,CA,86
,,,,,
94118,37.778779,-122.459982,san francisco,CA,60
,,,,,
94119,37.784827,-122.727802,san francisco,CA,1
,,,,,
94121,37.777129,-122.491682,san francisco,CA,66
,,,,,
94122,37.761179,-122.475732,san francisco,CA,61
,,,,,
94123,37.79967,-122.435732,san francisco,CA,47
,,,,,
94124,37.73123,-122.382857,san francisco,CA,6
,,,,,
94126,37.784827,-122.727802,san francisco,CA,1
,,,,,
94127,37.73403,-122.458632,san francisco,CA,52
,,,,,
94129,37.798878,-122.465682,san francisco,CA,4
,,,,,
94130,37.819763,-122.368433,san francisco,CA,1
,,,,,
94131,37.74363,-122.443182,san francisco,CA,80
,,,,,
94132,37.722631,-122.482483,san francisco,CA,13
,,,,,
94133,37.801928,-122.410182,san francisco,CA,32
,,,,,
94134,37.72168,-122.410832,san francisco,CA,17
,,,,,
94143,37.76313,-122.458582,san francisco,CA,2
,,,,,
94159,37.784827,-122.727802,san francisco,CA,1
,,,,,
94160,37.784827,-122.727802,san francisco,CA,1
,,,,,
94177,37.784827,-122.727802,san francisco,CA,1
,,,,,
94301,37.189396,-121.705327,santa clara,CA,31
,,,,,
94302,37.189396,-121.705327,santa clara,CA,1
,,,,,
94303,37.467338,-122.138765,san mateo,CA,26
,,,,,
94304,37.189396,-121.705327,santa clara,CA,4
,,,,,
94305,37.189396,-121.705327,santa clara,CA,6
,,,,,
94306,37.189396,-121.705327,santa clara,CA,22
,,,,,
94401,37.573485,-122.32253,san mateo,CA,16
,,,,,
94402,37.541886,-122.33063,san mateo,CA,28
,,,,,
94403,37.541486,-122.304079,san mateo,CA,32
,,,,,
94404,37.553774,-122.269978,san mateo,CA,27
,,,,,
94501,37.770563,-122.264779,alameda,CA,62
,,,,,
94502,37.735088,-122.243067,alameda,CA,19
,,,,,
94503,NA,NA,napa,CA,3
,,,,,
94506,37.832075,-121.916718,contra costa,CA,14
,,,,,
94507,37.936723,-122.067431,contra costa,CA,8
,,,,,
94508,38.57145,-122.450215,napa,CA,3
,,,,,
94509,37.931997,-121.906748,contra costa,CA,5
,,,,,
94510,38.1012,-122.032061,solano,CA,19
,,,,,
94511,38.02662,-121.642463,contra costa,CA,1
,,,,,
94513,37.912274,-121.843071,contra costa,CA,15
,,,,,
94514,37.858925,-121.617002,contra costa,CA,1
,,,,,
94515,38.615055,-122.507742,napa,CA,3
,,,,,
94517,37.897832,-121.784818,contra costa,CA,7
,,,,,
94518,37.953672,-122.022872,contra costa,CA,9
,,,,,
94519,37.984821,-122.011272,contra costa,CA,6
,,,,,
94520,37.988871,-122.013355,contra costa,CA,7
,,,,,
94521,37.951661,-121.960045,contra costa,CA,15
,,,,,
94522,37.777208,-121.955399,contra costa,CA,1
,,,,,
94523,37.957572,-122.077774,contra costa,CA,35
,,,,,
94525,37.958011,-122.152602,contra costa,CA,2
,,,,,
94526,37.914851,-122.053573,contra costa,CA,24
,,,,,
94530,37.918024,-122.30248,contra costa,CA,43
,,,,,
94531,37.920852,-121.723919,contra costa,CA,1
,,,,,
94533,38.278428,-122.020276,solano,CA,7
,,,,,
94536,37.565285,-121.982721,alameda,CA,17
,,,,,
94538,37.509453,-121.95832,alameda,CA,11
,,,,,
94539,37.520339,-121.912568,alameda,CA,19
,,,,,
94541,37.67513,-121.97412,alameda,CA,10
,,,,,
94542,37.662552,-122.051179,alameda,CA,7
,,,,,
94544,37.613883,-122.061673,alameda,CA,7
,,,,,
94545,37.635482,-122.092324,alameda,CA,3
,,,,,
94546,37.731229,-122.066373,alameda,CA,34
,,,,,
94547,38.008343,-122.262101,contra costa,CA,8
,,,,,
94548,37.972622,-121.665205,contra costa,CA,1
,,,,,
94549,37.901223,-122.120089,contra costa,CA,31
,,,,,
94550,37.676781,-121.91605,alameda,CA,10
,,,,,
94551,37.680181,-121.921498,alameda,CA,7
,,,,,
94552,37.68943,-121.9251,alameda,CA,10
,,,,,
94553,37.986421,-122.134976,contra costa,CA,20
,,,,,
94555,37.570681,-122.063323,alameda,CA,8
,,,,,
94556,37.838926,-122.099224,contra costa,CA,24
,,,,,
94558,38.516158,-122.311921,napa,CA,33
,,,,,
94559,38.256973,-122.311685,napa,CA,11
,,,,,
94560,37.534102,-122.025352,alameda,CA,5
,,,,,
94561,37.996516,-121.68972,contra costa,CA,5
,,,,,
94562,38.437887,-122.399101,napa,CA,1
,,,,,
94563,37.893124,-122.144826,contra costa,CA,33
,,,,,
94564,37.990772,-122.243294,contra costa,CA,7
,,,,,
94565,38.00307,-121.917219,contra costa,CA,10
,,,,,
94566,37.646081,-121.862128,alameda,CA,17
,,,,,
94568,37.714402,-121.906329,alameda,CA,13
,,,,,
94571,38.209069,-121.777874,solano,CA,2
,,,,,
94572,38.030821,-122.245129,contra costa,CA,1
,,,,,
94574,38.537757,-122.401289,napa,CA,10
,,,,,
94577,37.715629,-122.158621,alameda,CA,31
,,,,,
94578,37.704429,-122.124225,alameda,CA,3
,,,,,
94579,37.688518,-122.147425,alameda,CA,2
,,,,,
94580,37.68123,-122.133825,alameda,CA,9
,,,,,
94583,37.768556,-121.975531,contra costa,CA,16
,,,,,
94585,38.195385,-121.994935,solano,CA,4
,,,,,
94587,37.589084,-121.97362,alameda,CA,5
,,,,,
94588,37.688244,-121.898741,alameda,CA,11
,,,,,
94589,38.158221,-122.280383,solano,CA,3
,,,,,
94590,38.096719,-122.25328,solano,CA,11
,,,,,
94591,38.114249,-122.206292,solano,CA,18
,,,,,
94595,37.873343,-122.070625,contra costa,CA,23
,,,,,
94596,37.952389,-121.864451,contra costa,CA,13
,,,,,
94597,37.777208,-121.955399,contra costa,CA,15
,,,,,
94598,37.906873,-122.037045,contra costa,CA,12
,,,,,
94599,38.41611,-122.361587,napa,CA,2
,,,,,
94601,37.786027,-122.223779,alameda,CA,8
,,,,,
94602,37.802777,-122.204578,alameda,CA,45
,,,,,
94603,37.761778,-122.198428,alameda,CA,5
,,,,,
94604,37.680181,-121.921498,alameda,CA,1
,,,,,
94605,37.759322,-122.156626,alameda,CA,24
,,,,,
94606,37.789927,-122.243979,alameda,CA,9
,,,,,
94607,37.807967,-122.29878,alameda,CA,14
,,,,,
94608,37.833876,-122.29548,alameda,CA,16
,,,,,
94609,37.834776,-122.26328,alameda,CA,20
,,,,,
94610,37.811277,-122.238779,alameda,CA,65
,,,,,
94611,37.847076,-122.222278,alameda,CA,97
,,,,,
94612,37.809435,-122.27018,alameda,CA,13
,,,,,
94618,37.843126,-122.240179,alameda,CA,64
,,,,,
94619,37.783877,-122.167126,alameda,CA,27
,,,,,
94620,37.680181,-121.921498,alameda,CA,1
,,,,,
94621,37.742529,-122.196689,alameda,CA,1
,,,,,
94661,37.680181,-121.921498,alameda,CA,1
,,,,,
94701,37.860576,-122.29673,alameda,CA,1
,,,,,
94702,37.864425,-122.28713,alameda,CA,21
,,,,,
94703,37.865725,-122.27573,alameda,CA,29
,,,,,
94704,37.866975,-122.256729,alameda,CA,14
,,,,,
94705,37.85983,-122.242029,alameda,CA,42
,,,,,
94706,37.889525,-122.29828,alameda,CA,32
,,,,,
94707,37.892675,-122.27608,alameda,CA,46
,,,,,
94708,37.891825,-122.260429,alameda,CA,44
,,,,,
94709,37.879825,-122.26553,alameda,CA,6
,,,,,
94710,37.873366,-122.30273,alameda,CA,10
,,,,,
94801,37.947523,-122.384032,contra costa,CA,12
,,,,,
94803,37.966422,-122.206177,contra costa,CA,20
,,,,,
94804,37.925174,-122.344381,contra costa,CA,19
,,,,,
94805,37.929123,-122.30093,contra costa,CA,11
,,,,,
94806,37.959573,-122.334131,contra costa,CA,12
,,,,,
94807,37.777208,-121.955399,contra costa,CA,2
,,,,,
94901,37.970948,-122.504286,marin,CA,56
,,,,,
94903,38.033922,-122.58549,marin,CA,44
,,,,,
94904,37.947874,-122.536337,marin,CA,31
,,,,,
94915,38.07392,-122.55944,marin,CA,2
,,,,,
94920,37.935324,-122.564439,marin,CA,16
,,,,,
94924,38.001976,-122.77915,marin,CA,2
,,,,,
94925,37.925039,-122.512035,marin,CA,16
,,,,,
94928,38.345663,-122.698398,sonoma,CA,6
,,,,,
94930,37.981723,-122.607791,marin,CA,13
,,,,,
94931,38.323614,-122.710565,sonoma,CA,4
,,,,,
94933,38.015803,-122.690302,marin,CA,1
,,,,,
94937,38.112571,-122.887717,marin,CA,3
,,,,,
94938,38.022974,-122.699183,marin,CA,1
,,,,,
94939,37.936624,-122.534237,marin,CA,9
,,,,,
94941,37.886325,-122.562937,marin,CA,118
,,,,,
94942,38.068036,-122.740988,marin,CA,2
,,,,,
94945,38.027654,-122.540951,marin,CA,19
,,,,,
94946,38.008973,-122.685568,marin,CA,1
,,,,,
94947,38.09502,-122.620893,marin,CA,22
,,,,,
94948,38.148858,-122.573745,marin,CA,1
,,,,,
94949,38.06372,-122.541739,marin,CA,23
,,,,,
94951,38.315342,-122.648346,sonoma,CA,2
,,,,,
94952,38.265366,-122.822588,sonoma,CA,23
,,,,,
94954,38.225816,-122.574526,sonoma,CA,12
,,,,,
94956,38.057934,-122.853421,marin,CA,2
,,,,,
94957,38.022322,-122.561689,marin,CA,10
,,,,,
94960,37.986473,-122.59184,marin,CA,35
,,,,,
94963,38.016622,-122.659644,marin,CA,1
,,,,,
94965,37.850417,-122.531423,marin,CA,20
,,,,,
94966,38.068036,-122.740988,marin,CA,1
,,,,,
94970,37.911625,-122.652043,marin,CA,1
,,,,,
94973,38.007172,-122.661691,marin,CA,6
,,,,,
94975,38.463088,-122.989975,sonoma,CA,1
,,,,,
94978,38.068036,-122.740988,marin,CA,1
,,,,,
95001,37.05297,-121.949418,santa cruz,CA,1
,,,,,
95003,37.024933,-121.879432,santa cruz,CA,19
,,,,,
95004,36.864154,-121.647608,monterey,CA,2
,,,,,
95005,37.096297,-122.095525,santa cruz,CA,1
,,,,,
95006,37.176595,-122.130887,santa cruz,CA,3
,,,,,
95008,37.189396,-121.705327,santa clara,CA,17
,,,,,
95009,37.189396,-121.705327,santa clara,CA,1
,,,,,
95010,37.012368,-122.000537,santa cruz,CA,9
,,,,,
95012,36.782556,-121.735759,monterey,CA,2
,,,,,
95014,37.189396,-121.705327,santa clara,CA,18
,,,,,
95015,37.189396,-121.705327,santa clara,CA,1
,,,,,
95018,37.102414,-122.068323,santa cruz,CA,6
,,,,,
95020,37.023347,-121.493849,santa clara,CA,15
,,,,,
95023,36.828078,-121.3924,san benito,CA,5
,,,,,
95030,37.107647,-121.842064,santa clara,CA,13
,,,,,
95032,37.070923,-121.66186,santa clara,CA,23
,,,,,
95033,37.189396,-121.705327,santa clara,CA,7
,,,,,
95035,37.436454,-121.861989,santa clara,CA,9
,,,,,
95037,37.130238,-121.681557,santa clara,CA,13
,,,,,
95046,37.090125,-121.606099,santa clara,CA,3
,,,,,
95050,37.189396,-121.705327,santa clara,CA,14
,,,,,
95051,37.189396,-121.705327,santa clara,CA,19
,,,,,
95054,37.189396,-121.705327,santa clara,CA,2
,,,,,
95055,37.189396,-121.705327,santa clara,CA,2
,,,,,
95060,37.052748,-122.111126,santa cruz,CA,37
,,,,,
95062,36.971549,-121.990571,santa cruz,CA,37
,,,,,
95064,36.988837,-122.059073,santa cruz,CA,1
,,,,,
95065,37.033568,-121.982632,santa cruz,CA,6
,,,,,
95066,37.071387,-122.006276,santa cruz,CA,3
,,,,,
95070,37.189396,-121.705327,santa clara,CA,21
,,,,,
95073,37.031948,-121.94972,santa cruz,CA,9
,,,,,
95076,36.98025,-121.74696,santa cruz,CA,14
,,,,,
95103,37.189396,-121.705327,santa clara,CA,1
,,,,,
95110,37.189396,-121.705327,santa clara,CA,4
,,,,,
95111,37.267947,-121.800001,santa clara,CA,2
,,,,,
95112,37.37004,-121.892093,santa clara,CA,11
,,,,,
95113,37.189396,-121.705327,santa clara,CA,1
,,,,,
95116,37.35504,-121.835344,santa clara,CA,5
,,,,,
95117,37.189396,-121.705327,santa clara,CA,6
,,,,,
95118,37.189396,-121.705327,santa clara,CA,9
,,,,,
95119,37.189396,-121.705327,santa clara,CA,5
,,,,,
95120,37.38478,-121.895798,santa clara,CA,22
,,,,,
95121,37.298592,-121.797977,santa clara,CA,2
,,,,,
95122,37.33074,-121.828333,santa clara,CA,1
,,,,,
95123,37.189396,-121.705327,santa clara,CA,24
,,,,,
95124,37.189396,-121.705327,santa clara,CA,24
,,,,,
95125,37.189396,-121.705327,santa clara,CA,37
,,,,,
95126,37.189396,-121.705327,santa clara,CA,14
,,,,,
95127,37.373903,-121.795913,santa clara,CA,8
,,,,,
95128,37.189396,-121.705327,santa clara,CA,8
,,,,,
95129,37.189396,-121.705327,santa clara,CA,21
,,,,,
95130,37.189396,-121.705327,santa clara,CA,2
,,,,,
95131,37.388389,-121.886316,santa clara,CA,4
,,,,,
95132,37.433587,-121.829615,santa clara,CA,7
,,,,,
95133,37.372239,-121.864265,santa clara,CA,2
,,,,,
95135,37.272289,-121.723862,santa clara,CA,18
,,,,,
95136,37.189396,-121.705327,santa clara,CA,18
,,,,,
95138,37.258733,-121.745159,santa clara,CA,1
,,,,,
95139,37.216394,-121.740059,santa clara,CA,1
,,,,,
95148,37.335928,-121.776861,santa clara,CA,7
,,,,,
95156,37.189396,-121.705327,santa clara,CA,1
,,,,,
95160,37.189396,-121.705327,santa clara,CA,1
,,,,,
95203,37.954573,-121.321707,san joaquin,CA,2
,,,,,
95204,37.975473,-121.323758,san joaquin,CA,6
,,,,,
95205,37.954773,-121.255405,san joaquin,CA,1
,,,,,
95206,37.912324,-121.387007,san joaquin,CA,4
,,,,,
95207,38.018146,-121.325487,san joaquin,CA,4
,,,,,
95209,37.988691,-121.337187,san joaquin,CA,5
,,,,,
95210,38.025472,-121.291628,san joaquin,CA,3
,,,,,
95212,38.037321,-121.216156,san joaquin,CA,4
,,,,,
95219,38.001613,-121.455259,san joaquin,CA,1
,,,,,
95223,38.328969,-120.223837,calaveras,CA,1
,,,,,
95227,38.211127,-121.044252,san joaquin,CA,1
,,,,,
95231,37.883775,-121.290405,san joaquin,CA,1
,,,,,
95233,38.183537,-120.388215,calaveras,CA,1
,,,,,
95242,38.138318,-121.422011,san joaquin,CA,2
,,,,,
95247,38.131035,-120.454381,calaveras,CA,2
,,,,,
95258,38.157962,-121.314909,san joaquin,CA,1
,,,,,
95301,37.317255,-120.647347,merced,CA,1
,,,,,
95304,37.889849,-121.253872,san joaquin,CA,1
,,,,,
95307,37.561889,-120.967976,stanislaus,CA,1
,,,,,
95320,37.817826,-121.033598,san joaquin,CA,1
,,,,,
95327,37.883131,-120.419802,tuolumne,CA,1
,,,,,
95336,37.807297,-121.177601,san joaquin,CA,1
,,,,,
95340,37.338191,-120.475427,merced,CA,2
,,,,,
95341,37.186872,-120.650351,merced,CA,1
,,,,,
95348,37.412623,-120.50975,merced,CA,2
,,,,,
95350,37.669463,-121.016796,stanislaus,CA,1
,,,,,
95351,37.636384,-121.082742,stanislaus,CA,1
,,,,,
95355,37.685879,-120.948033,stanislaus,CA,1
,,,,,
95356,37.722878,-121.035846,stanislaus,CA,1
,,,,,
95366,37.765177,-121.115411,san joaquin,CA,2
,,,,,
95367,37.69222,-120.865061,stanislaus,CA,4
,,,,,
95368,37.695359,-121.078608,stanislaus,CA,1
,,,,,
95370,37.96091,-120.343863,tuolumne,CA,3
,,,,,
95376,37.688679,-121.407804,san joaquin,CA,3
,,,,,
95377,NA,NA,san joaquin,CA,3
,,,,,
95382,37.530174,-120.851857,stanislaus,CA,1
,,,,,
95386,37.659644,-120.775617,stanislaus,CA,1
,,,,,
95401,38.450412,-122.783159,sonoma,CA,10
,,,,,
95402,38.440061,-122.710598,sonoma,CA,1
,,,,,
95403,38.477043,-122.810328,sonoma,CA,8
,,,,,
95404,38.452642,-122.656296,sonoma,CA,22
,,,,,
95405,38.444714,-122.786392,sonoma,CA,15
,,,,,
95407,38.389113,-122.741849,sonoma,CA,3
,,,,,
95409,38.462575,-122.626545,sonoma,CA,22
,,,,,
95422,38.946476,-122.657017,lake,CA,1
,,,,,
95425,38.638928,-122.91333,sonoma,CA,2
,,,,,
95426,38.82677,-122.732911,lake,CA,1
,,,,,
95427,39.238683,-123.58761,mendocino,CA,1
,,,,,
95428,39.835096,-123.148437,mendocino,CA,1
,,,,,
95433,38.313864,-122.513093,sonoma,CA,1
,,,,,
95436,38.509736,-122.918385,sonoma,CA,4
,,,,,
95437,39.500634,-123.637284,mendocino,CA,3
,,,,,
95441,38.707323,-123.006531,sonoma,CA,1
,,,,,
95442,38.383854,-122.557253,sonoma,CA,3
,,,,,
95444,38.434926,-122.868154,sonoma,CA,3
,,,,,
95445,38.836933,-123.527323,mendocino,CA,1
,,,,,
95448,38.512761,-122.787101,sonoma,CA,11
,,,,,
95450,38.546934,-123.227415,sonoma,CA,1
,,,,,
95451,38.930811,-122.793699,lake,CA,3
,,,,,
95452,38.413111,-122.548243,sonoma,CA,1
,,,,,
95453,39.05345,-122.919291,lake,CA,1
,,,,,
95457,38.89699,-122.625621,lake,CA,1
,,,,,
95460,39.319949,-123.734377,mendocino,CA,2
,,,,,
95462,38.459755,-123.000625,sonoma,CA,1
,,,,,
95464,39.276878,-122.868266,lake,CA,2
,,,,,
95465,38.406676,-123.020406,sonoma,CA,1
,,,,,
95466,39.056598,-123.525375,mendocino,CA,1
,,,,,
95469,39.360935,-123.106751,mendocino,CA,1
,,,,,
95472,38.407222,-122.869654,sonoma,CA,23
,,,,,
95473,38.325851,-122.505846,sonoma,CA,1
,,,,,
95476,38.255943,-122.476819,sonoma,CA,26
,,,,,
95482,39.403699,-123.321202,mendocino,CA,5
,,,,,
95485,39.252489,-122.85643,lake,CA,1
,,,,,
95490,39.525958,-123.36573,mendocino,CA,2
,,,,,
95492,38.532827,-122.8041,sonoma,CA,13
,,,,,
95501,40.646324,-124.025773,humboldt,CA,4
,,,,,
95503,40.787799,-123.938685,humboldt,CA,1
,,,,,
95519,40.708094,-123.976234,humboldt,CA,2
,,,,,
95521,40.564495,-123.935891,humboldt,CA,4
,,,,,
95531,41.744452,-124.056897,del norte,CA,1
,,,,,
95540,40.815265,-123.903317,humboldt,CA,1
,,,,,
95542,40.65136,-123.862815,humboldt,CA,1
,,,,,
95553,40.23548,-123.845935,humboldt,CA,1
,,,,,
95554,40.262278,-123.81444,humboldt,CA,1
,,,,,
95602,39.014933,-121.07047,placer,CA,1
,,,,,
95603,38.973505,-121.067718,placer,CA,1
,,,,,
95604,39.106287,-120.536032,placer,CA,1
,,,,,
95608,38.62136,-121.332191,sacramento,CA,5
,,,,,
95610,38.689802,-121.26736,sacramento,CA,5
,,,,,
95616,38.521776,-121.749016,yolo,CA,10
,,,,,
95618,38.54431,-121.685904,yolo,CA,2
,,,,,
95620,38.397372,-121.761419,solano,CA,1
,,,,,
95621,38.693052,-121.309461,sacramento,CA,5
,,,,,
95624,38.44148,-121.307142,sacramento,CA,2
,,,,,
95627,38.779509,-122.100884,yolo,CA,1
,,,,,
95628,38.655263,-121.260709,sacramento,CA,2
,,,,,
95630,38.594181,-121.310796,sacramento,CA,3
,,,,,
95633,38.854672,-120.830282,el dorado,CA,1
,,,,,
95648,38.929305,-121.327143,placer,CA,1
,,,,,
95660,38.667003,-121.387541,sacramento,CA,1
,,,,,
95661,38.74073,-121.25603,placer,CA,3
,,,,,
95662,38.687103,-121.225369,sacramento,CA,2
,,,,,
95667,38.730224,-120.797149,el dorado,CA,1
,,,,,
95670,38.597705,-121.270426,sacramento,CA,4
,,,,,
95673,38.478399,-121.459135,sacramento,CA,1
,,,,,
95677,38.801233,-121.230374,placer,CA,1
,,,,,
95678,38.910488,-121.131309,placer,CA,3
,,,,,
95682,38.62183,-120.78801,el dorado,CA,4
,,,,,
95683,38.51858,-121.125431,sacramento,CA,1
,,,,,
95687,38.35056,-121.912773,solano,CA,5
,,,,,
95688,38.407405,-122.012778,solano,CA,1
,,,,,
95690,38.181635,-121.578895,sacramento,CA,2
,,,,,
95691,38.608615,-121.610919,yolo,CA,5
,,,,,
95693,38.405222,-121.239026,sacramento,CA,2
,,,,,
95694,38.622768,-121.923196,yolo,CA,1
,,,,,
95695,38.74388,-121.915653,yolo,CA,2
,,,,,
95696,38.34896,-121.908324,solano,CA,1
,,,,,
95709,38.745549,-120.693072,el dorado,CA,1
,,,,,
95742,38.579621,-121.20253,sacramento,CA,3
,,,,,
95746,38.756614,-121.183436,placer,CA,2
,,,,,
95747,38.779875,-121.335559,placer,CA,4
,,,,,
95758,38.347205,-121.428681,sacramento,CA,5
,,,,,
95762,38.686847,-121.044846,el dorado,CA,2
,,,,,
95765,38.819795,-121.277439,placer,CA,1
,,,,,
95776,38.695895,-121.709713,yolo,CA,1
,,,,,
95814,38.579055,-121.480905,sacramento,CA,3
,,,,,
95815,38.589505,-121.448665,sacramento,CA,2
,,,,,
95816,38.571505,-121.467549,sacramento,CA,4
,,,,,
95817,38.549232,-121.452264,sacramento,CA,1
,,,,,
95818,38.557255,-121.495915,sacramento,CA,5
,,,,,
95819,38.568305,-121.440764,sacramento,CA,10
,,,,,
95820,38.536606,-121.446414,sacramento,CA,2
,,,,,
95821,38.627204,-121.437964,sacramento,CA,8
,,,,,
95822,38.511356,-121.497716,sacramento,CA,4
,,,,,
95823,38.481354,-121.442071,sacramento,CA,3
,,,,,
95824,38.517256,-121.440764,sacramento,CA,1
,,,,,
95825,38.585804,-121.402213,sacramento,CA,2
,,,,,
95826,38.547639,-121.385459,sacramento,CA,3
,,,,,
95827,38.552752,-121.322653,sacramento,CA,2
,,,,,
95828,38.488446,-121.423245,sacramento,CA,2
,,,,,
95831,38.497863,-121.531332,sacramento,CA,10
,,,,,
95832,38.435014,-121.497276,sacramento,CA,1
,,,,,
95834,38.584193,-121.523566,sacramento,CA,6
,,,,,
95835,38.667783,-121.526051,sacramento,CA,5
,,,,,
95843,38.716091,-121.366613,sacramento,CA,1
,,,,,
95864,38.586554,-121.379467,sacramento,CA,3
,,,,,
95901,39.260878,-121.370959,yuba,CA,4
,,,,,
95920,39.458507,-121.934145,glenn,CA,1
,,,,,
95924,39.26599,-120.64145,nevada,CA,1
,,,,,
95926,39.746159,-121.840083,butte,CA,5
,,,,,
95928,39.687626,-121.799166,butte,CA,4
,,,,,
95932,39.203958,-122.221269,colusa,CA,1
,,,,,
95941,39.528374,-121.265237,butte,CA,1
,,,,,
95942,39.947462,-121.582814,butte,CA,1
,,,,,
95945,39.196288,-120.95855,nevada,CA,3
,,,,,
95946,39.21656,-121.117883,nevada,CA,2
,,,,,
95949,39.110986,-121.128336,nevada,CA,1
,,,,,
95959,39.299606,-120.887965,nevada,CA,6
,,,,,
95960,39.330529,-121.084241,nevada,CA,1
,,,,,
95969,39.654279,-121.707265,butte,CA,2
,,,,,
95973,39.837577,-121.869949,butte,CA,2
,,,,,
95988,39.519386,-122.292996,glenn,CA,1
,,,,,
96001,40.675738,-122.456982,shasta,CA,1
,,,,,
96019,40.69686,-122.368263,shasta,CA,1
,,,,,
96021,40.125399,-122.135411,tehama,CA,1
,,,,,
96067,41.427158,-122.473307,siskiyou,CA,1
,,,,,
96073,40.56844,-122.201552,shasta,CA,1
,,,,,
96080,40.142907,-122.340888,tehama,CA,2
,,,,,
96094,41.6661,-122.408583,siskiyou,CA,1
,,,,,
96099,40.704337,-122.387808,shasta,CA,1
,,,,,
96103,39.812686,-120.640497,plumas,CA,1
,,,,,
96130,40.548881,-120.719159,lassen,CA,1
,,,,,
96142,38.998714,-120.107955,el dorado,CA,1
,,,,,
96143,39.201123,-120.083236,placer,CA,1
,,,,,
96146,39.175186,-120.19544,placer,CA,1
,,,,,
96161,39.377677,-120.407502,nevada,CA,3
,,,,,
96555,NA,NA,,AP,1
,,,,,
96701,21.39065,-157.927829,honolulu,HI,1
,,,,,
96706,21.34455,-158.01395,honolulu,HI,3
,,,,,
96707,21.341784,-158.091383,honolulu,HI,1
,,,,,
96709,23.573339,-164.701172,honolulu,HI,1
,,,,,
96720,19.564519,-155.26203,hawaii,HI,1
,,,,,
96734,21.595644,-158.039121,honolulu,HI,6
,,,,,
96740,19.674123,-155.936565,hawaii,HI,1
,,,,,
96741,21.925909,-159.530254,kauai,HI,1
,,,,,
96743,19.887872,-155.751907,hawaii,HI,1
,,,,,
96744,21.66875,-157.93955,honolulu,HI,8
,,,,,
96749,19.581873,-155.032104,hawaii,HI,1
,,,,,
96761,20.919823,-156.717614,maui,HI,1
,,,,,
96782,21.51195,-157.994662,honolulu,HI,2
,,,,,
96786,21.5324,-158.047735,honolulu,HI,1
,,,,,
96789,21.458855,-158.012322,honolulu,HI,1
,,,,,
96791,21.55325,-158.163415,honolulu,HI,1
,,,,,
96792,21.437389,-158.181356,honolulu,HI,2
,,,,,
96793,20.901536,-156.566493,maui,HI,1
,,,,,
96797,21.399548,-158.015151,honolulu,HI,1
,,,,,
96814,24.859832,-168.021815,honolulu,HI,1
,,,,,
96815,24.859832,-168.021815,honolulu,HI,2
,,,,,
96816,24.859832,-168.021815,honolulu,HI,2
,,,,,
96817,21.65098,-157.922303,honolulu,HI,3
,,,,,
96822,21.67115,-157.94085,honolulu,HI,2
,,,,,
96825,21.670926,-157.940731,honolulu,HI,1
,,,,,
96950,15.190135,145.740804,northern mariana islands,MP,1
,,,,,
97005,45.496289,-122.800146,washington,OR,1
,,,,,
97006,45.52013,-122.860376,washington,OR,1
,,,,,
97008,45.45602,-122.799559,washington,OR,1
,,,,,
97015,45.415038,-122.499461,clackamas,OR,3
,,,,,
97024,45.544407,-122.53636,multnomah,OR,1
,,,,,
97031,45.638312,-121.677126,hood river,OR,1
,,,,,
97045,45.317893,-122.523602,clackamas,OR,1
,,,,,
97051,45.887794,-122.919935,columbia,OR,2
,,,,,
97060,45.525007,-122.390049,multnomah,OR,1
,,,,,
97070,45.308493,-122.785518,clackamas,OR,2
,,,,,
97080,45.481252,-122.38675,multnomah,OR,1
,,,,,
97113,45.600635,-122.920629,washington,OR,1
,,,,,
97124,45.62337,-122.953316,washington,OR,1
,,,,,
97140,45.371478,-122.874613,washington,OR,1
,,,,,
97201,45.498931,-122.693157,multnomah,OR,1
,,,,,
97205,45.51949,-122.690157,multnomah,OR,1
,,,,,
97206,45.483341,-122.596154,multnomah,OR,1
,,,,,
97209,45.53199,-122.683826,multnomah,OR,1
,,,,,
97211,45.577289,-122.615906,multnomah,OR,1
,,,,,
97212,45.54374,-122.643106,multnomah,OR,1
,,,,,
97213,45.53909,-122.599751,multnomah,OR,3
,,,,,
97214,45.51444,-122.642305,multnomah,OR,1
,,,,,
97215,45.51894,-122.599104,multnomah,OR,1
,,,,,
97219,45.45509,-122.696724,multnomah,OR,1
,,,,,
97220,45.55634,-122.556104,multnomah,OR,1
,,,,,
97221,45.50655,-122.733888,multnomah,OR,1
,,,,,
97232,45.52369,-122.642655,multnomah,OR,1
,,,,,
97236,45.484594,-122.504175,multnomah,OR,2
,,,,,
97301,44.90472,-122.921721,marion,OR,1
,,,,,
97302,44.890486,-123.082192,marion,OR,2
,,,,,
97304,44.99351,-123.107442,polk,OR,1
,,,,,
97305,44.996133,-122.91239,marion,OR,1
,,,,,
97321,44.594489,-122.581676,linn,OR,2
,,,,,
97330,44.639931,-123.275969,benton,OR,1
,,,,,
97338,44.928092,-123.337291,polk,OR,1
,,,,,
97341,44.832205,-124.050272,lincoln,OR,1
,,,,,
97370,44.555144,-123.439249,benton,OR,1
,,,,,
97388,44.885,-123.994219,lincoln,OR,1
,,,,,
97401,44.117868,-123.074193,lane,OR,3
,,,,,
97402,44.033642,-123.073186,lane,OR,2
,,,,,
97404,44.100192,-123.168807,lane,OR,2
,,,,,
97405,43.935009,-123.166429,lane,OR,2
,,,,,
97410,42.834139,-123.13216,douglas,OR,1
,,,,,
97415,42.137789,-124.249196,curry,OR,2
,,,,,
97487,44.003051,-123.367371,lane,OR,1
,,,,,
97495,43.333141,-123.325617,douglas,OR,1
,,,,,
97501,42.482623,-122.72255,jackson,OR,1
,,,,,
97520,42.148098,-122.537356,jackson,OR,2
,,,,,
97525,42.440993,-123.029161,jackson,OR,1
,,,,,
97527,42.345125,-123.440456,josephine,OR,1
,,,,,
97530,42.181333,-123.0241,jackson,OR,1
,,,,,
97535,42.262556,-122.81464,jackson,OR,1
,,,,,
97624,42.72222,-121.878916,klamath,OR,1
,,,,,
97701,44.082037,-121.227125,deschutes,OR,13
,,,,,
97702,43.998448,-121.260298,deschutes,OR,8
,,,,,
97707,43.843071,-121.576423,deschutes,OR,1
,,,,,
97756,44.268862,-121.266414,deschutes,OR,9
,,,,,
97759,44.31648,-121.509124,deschutes,OR,3
,,,,,
97801,45.711814,-118.637974,umatilla,OR,1
,,,,,
97814,44.754237,-117.742659,baker,OR,1
,,,,,
98002,47.315422,-122.20423,king,WA,1
,,,,,
98004,47.615471,-122.207221,king,WA,1
,,,,,
98009,47.432251,-121.803388,king,WA,1
,,,,,
98014,47.661862,-121.927236,king,WA,1
,,,,,
98021,47.794519,-122.194276,snohomish,WA,1
,,,,,
98026,47.835318,-122.326981,snohomish,WA,1
,,,,,
98027,47.497419,-122.010699,king,WA,2
,,,,,
98028,47.754219,-122.124643,king,WA,2
,,,,,
98029,47.565587,-122.025754,king,WA,1
,,,,,
98031,47.379972,-122.16538,king,WA,1
,,,,,
98033,47.673263,-122.187029,king,WA,1
,,,,,
98037,47.857022,-122.28301,snohomish,WA,1
,,,,,
98075,NA,NA,king,WA,1
,,,,,
98103,47.432251,-121.803388,king,WA,2
,,,,,
98105,47.432251,-121.803388,king,WA,2
,,,,,
98106,47.432251,-121.803388,king,WA,1
,,,,,
98107,47.432251,-121.803388,king,WA,1
,,,,,
98109,47.583868,-122.052333,king,WA,1
,,,,,
98112,47.432251,-121.803388,king,WA,1
,,,,,
98117,47.432251,-121.803388,king,WA,1
,,,,,
98121,47.432251,-121.803388,king,WA,1
,,,,,
98122,47.432251,-121.803388,king,WA,1
,,,,,
98125,47.432251,-121.803388,king,WA,1
,,,,,
98133,47.432251,-121.803388,king,WA,2
,,,,,
98136,47.432251,-121.803388,king,WA,2
,,,,,
98144,47.432251,-121.803388,king,WA,1
,,,,,
98155,47.767169,-122.259737,king,WA,1
,,,,,
98188,47.432251,-121.803388,king,WA,1
,,,,,
98199,47.776875,-122.264256,king,WA,2
,,,,,
98221,48.499172,-122.607111,skagit,WA,2
,,,,,
98225,48.747687,-122.454297,whatcom,WA,2
,,,,,
98250,48.538181,-123.068323,san juan,WA,1
,,,,,
98277,48.319858,-122.629353,island,WA,1
,,,,,
98310,47.606478,-122.634712,kitsap,WA,1
,,,,,
98311,47.627129,-122.637276,kitsap,WA,1
,,,,,
98312,47.578921,-122.79859,kitsap,WA,1
,,,,,
98346,47.834483,-122.547078,kitsap,WA,1
,,,,,
98349,47.288589,-122.777592,pierce,WA,1
,,,,,
98355,46.713843,-122.093813,lewis,WA,1
,,,,,
98362,48.051108,-123.360411,clallam,WA,1
,,,,,
98363,48.055733,-123.91784,clallam,WA,1
,,,,,
98365,47.911892,-122.709606,jefferson,WA,1
,,,,,
98368,48.018572,-122.849683,jefferson,WA,1
,,,,,
98370,47.751046,-122.614094,kitsap,WA,1
,,,,,
98407,47.287606,-122.500486,pierce,WA,1
,,,,,
98408,47.206871,-122.448534,pierce,WA,2
,,,,,
98465,47.254749,-122.530336,pierce,WA,1
,,,,,
98501,46.984767,-122.869079,thurston,WA,3
,,,,,
98512,46.949776,-123.021207,thurston,WA,1
,,,,,
98662,45.691419,-122.580457,clark,WA,1
,,,,,
98665,45.689187,-122.661608,clark,WA,1
,,,,,
98683,45.603216,-122.513318,clark,WA,1
,,,,,
98856,48.446836,-119.811252,okanogan,WA,1
,,,,,
98926,47.028084,-120.48998,kittitas,WA,1
,,,,,
99005,47.852847,-117.337529,spokane,WA,2
,,,,,
99201,47.66264,-117.435997,spokane,WA,1
,,,,,
99202,47.613475,-117.515897,spokane,WA,2
,,,,,
99203,47.629341,-117.406269,spokane,WA,2
,,,,,
99216,47.671164,-117.19926,spokane,WA,1
,,,,,
99223,47.592452,-117.34212,spokane,WA,1
,,,,,
99337,46.117122,-119.090676,benton,WA,1
,,,,,
99502,61.166069,-149.960008,anchorage,AK,1
,,,,,
99504,61.205284,-149.771928,anchorage,AK,1
,,,,,
99577,61.303131,-149.424518,anchorage,AK,1
,,,,,
99603,60.056453,-151.362422,kenai peninsula,AK,1
,,,,,
99705,64.780765,-147.207748,fairbanks north star,AK,3
,,,,,
99709,64.860126,-147.999791,fairbanks north star,AK,1
,,,,,
99801,58.373561,-134.523946,juneau,AK,1
